{"type": "FeatureCollection", "features": [{"type": "Feature", "geometry": {"type": "Point", "coordinates": [39.705412, 21.389372]}, "properties": {"layer": "signs", "name": "لوحة إرشادية", "color": "#fb923c", "x": "21.389372", "y": "39.705412"}}, {"type": "Feature", "geometry": {"type": "Point", "coordinates": [39.68370700000001, 21.37274500000002]}, "properties": {"layer": "signs", "name": "لوحة إرشادية", "color": "#fb923c", "x": "21.372745", "y": "39.683707"}}, {"type": "Feature", "geometry": {"type": "Point", "coordinates": [39.65958699999999, 21.35823700000002]}, "properties": {"layer": "signs", "name": "لوحة إرشادية", "color": "#fb923c", "x": "21.358237", "y": "39.659587"}}, {"type": "Feature", "geometry": {"type": "Point", "coordinates": [39.65859799999998, 21.35761199999998]}, "properties": {"layer": "signs", "name": "لوحة إرشادية", "color": "#fb923c", "x": "21.357612", "y": "39.658598"}}, {"type": "Feature", "geometry": {"type": "Point", "coordinates": [39.62603200000002, 21.352543]}, "properties": {"layer": "signs", "name": "لوحة إرشادية", "color": "#fb923c", "x": "21.352543", "y": "39.626032"}}, {"type": "Feature", "geometry": {"type": "Point", "coordinates": [39.71153100000002, 21.397026]}, "properties": {"layer": "signs", "name": "لوحة إرشادية", "color": "#fb923c", "x": "21.397026", "y": "39.711531"}}, {"type": "Feature", "geometry": {"type": "Point", "coordinates": [39.70502099999998, 21.38840600000001]}, "properties": {"layer": "signs", "name": "لوحة إرشادية", "color": "#fb923c", "x": "21.388406", "y": "39.705021"}}, {"type": "Feature", "geometry": {"type": "Point", "coordinates": [39.70999100000001, 21.39514700000001]}, "properties": {"layer": "signs", "name": "لوحة إرشادية", "color": "#fb923c", "x": "21.395147", "y": "39.709991"}}, {"type": "Feature", "geometry": {"type": "Point", "coordinates": [39.49812099999998, 21.38004499999998]}, "properties": {"layer": "signs", "name": "لوحة إرشادية", "color": "#fb923c", "x": "21.380045", "y": "39.498121"}}, {"type": "Feature", "geometry": {"type": "Point", "coordinates": [39.708519, 21.39327099999998]}, "properties": {"layer": "signs", "name": "لوحة إرشادية", "color": "#fb923c", "x": "21.393271", "y": "39.708519"}}, {"type": "Feature", "geometry": {"type": "Point", "coordinates": [39.70930899999998, 21.394332]}, "properties": {"layer": "signs", "name": "لوحة إرشادية", "color": "#fb923c", "x": "21.394332", "y": "39.709309"}}, {"type": "Feature", "geometry": {"type": "Point", "coordinates": [39.686714, 21.37422900000002]}, "properties": {"layer": "signs", "name": "لوحة إرشادية", "color": "#fb923c", "x": "21.374229", "y": "39.686714"}}, {"type": "Feature", "geometry": {"type": "Point", "coordinates": [39.71138900000001, 21.39694399999997]}, "properties": {"layer": "signs", "name": "لوحة إرشادية", "color": "#fb923c", "x": "21.396944", "y": "39.711389"}}, {"type": "Feature", "geometry": {"type": "Point", "coordinates": [39.61944400000001, 21.3525]}, "properties": {"layer": "signs", "name": "لوحة إرشادية", "color": "#fb923c", "x": "21.3525", "y": "39.619444"}}, {"type": "Feature", "geometry": {"type": "Point", "coordinates": [39.62277799999996, 21.3525]}, "properties": {"layer": "signs", "name": "لوحة إرشادية", "color": "#fb923c", "x": "21.3525", "y": "39.622778"}}, {"type": "Feature", "geometry": {"type": "Point", "coordinates": [39.62361099999998, 21.3525]}, "properties": {"layer": "signs", "name": "لوحة إرشادية", "color": "#fb923c", "x": "21.3525", "y": "39.623611"}}, {"type": "Feature", "geometry": {"type": "Point", "coordinates": [39.61888900000001, 21.3525]}, "properties": {"layer": "signs", "name": "لوحة إرشادية", "color": "#fb923c", "x": "21.3525", "y": "39.618889"}}, {"type": "Feature", "geometry": {"type": "Point", "coordinates": [39.61944400000001, 21.3525]}, "properties": {"layer": "signs", "name": "لوحة إرشادية", "color": "#fb923c", "x": "21.3525", "y": "39.619444"}}, {"type": "Feature", "geometry": {"type": "Point", "coordinates": [39.57805600000001, 21.35361099999999]}, "properties": {"layer": "signs", "name": "لوحة إرشادية", "color": "#fb923c", "x": "21.353611", "y": "39.578056"}}, {"type": "Feature", "geometry": {"type": "Point", "coordinates": [39.58277799999998, 21.35361099999999]}, "properties": {"layer": "signs", "name": "لوحة إرشادية", "color": "#fb923c", "x": "21.353611", "y": "39.582778"}}, {"type": "Feature", "geometry": {"type": "Point", "coordinates": [39.58333300000002, 21.35361099999999]}, "properties": {"layer": "signs", "name": "لوحة إرشادية", "color": "#fb923c", "x": "21.353611", "y": "39.583333"}}, {"type": "Feature", "geometry": {"type": "Point", "coordinates": [39.57527800000001, 21.35333299999997]}, "properties": {"layer": "signs", "name": "لوحة إرشادية", "color": "#fb923c", "x": "21.353333", "y": "39.575278"}}, {"type": "Feature", "geometry": {"type": "Point", "coordinates": [39.584722, 21.35333299999997]}, "properties": {"layer": "signs", "name": "لوحة إرشادية", "color": "#fb923c", "x": "21.353333", "y": "39.584722"}}, {"type": "Feature", "geometry": {"type": "Point", "coordinates": [39.623889, 21.3525]}, "properties": {"layer": "signs", "name": "لوحة إرشادية", "color": "#fb923c", "x": "21.3525", "y": "39.623889"}}, {"type": "Feature", "geometry": {"type": "Point", "coordinates": [39.56611100000001, 21.3525]}, "properties": {"layer": "signs", "name": "لوحة إرشادية", "color": "#fb923c", "x": "21.3525", "y": "39.566111"}}, {"type": "Feature", "geometry": {"type": "Point", "coordinates": [39.60444399999999, 21.35277800000001]}, "properties": {"layer": "signs", "name": "لوحة إرشادية", "color": "#fb923c", "x": "21.352778", "y": "39.604444"}}, {"type": "Feature", "geometry": {"type": "Point", "coordinates": [39.568889, 21.35277800000001]}, "properties": {"layer": "signs", "name": "لوحة إرشادية", "color": "#fb923c", "x": "21.352778", "y": "39.568889"}}, {"type": "Feature", "geometry": {"type": "Point", "coordinates": [39.62527800000002, 21.3525]}, "properties": {"layer": "signs", "name": "لوحة إرشادية", "color": "#fb923c", "x": "21.3525", "y": "39.625278"}}, {"type": "Feature", "geometry": {"type": "Point", "coordinates": [39.57138900000002, 21.353056]}, "properties": {"layer": "signs", "name": "لوحة إرشادية", "color": "#fb923c", "x": "21.353056", "y": "39.571389"}}, {"type": "Feature", "geometry": {"type": "Point", "coordinates": [39.56805600000002, 21.35277800000001]}, "properties": {"layer": "signs", "name": "لوحة إرشادية", "color": "#fb923c", "x": "21.352778", "y": "39.568056"}}, {"type": "Feature", "geometry": {"type": "Point", "coordinates": [39.61638899999999, 21.35222200000002]}, "properties": {"layer": "signs", "name": "لوحة إرشادية", "color": "#fb923c", "x": "21.352222", "y": "39.616389"}}, {"type": "Feature", "geometry": {"type": "Point", "coordinates": [39.70479299999998, 21.38812200000001]}, "properties": {"layer": "signs", "name": "لوحة إرشادية", "color": "#fb923c", "x": "21.388122", "y": "39.704793"}}, {"type": "Feature", "geometry": {"type": "Point", "coordinates": [39.64185800000003, 21.35296600000002]}, "properties": {"layer": "signs", "name": "لوحة إرشادية", "color": "#fb923c", "x": "21.352966", "y": "39.641858"}}, {"type": "Feature", "geometry": {"type": "Point", "coordinates": [39.524722, 21.36999999999999]}, "properties": {"layer": "signs", "name": "لوحة إرشادية", "color": "#fb923c", "x": "21.37", "y": "39.524722"}}, {"type": "Feature", "geometry": {"type": "Point", "coordinates": [39.539444, 21.351944]}, "properties": {"layer": "signs", "name": "لوحة إرشادية", "color": "#fb923c", "x": "21.351944", "y": "39.539444"}}, {"type": "Feature", "geometry": {"type": "Point", "coordinates": [39.513889, 21.37833299999998]}, "properties": {"layer": "signs", "name": "لوحة إرشادية", "color": "#fb923c", "x": "21.378333", "y": "39.513889"}}, {"type": "Feature", "geometry": {"type": "Point", "coordinates": [39.55111099999998, 21.351389]}, "properties": {"layer": "signs", "name": "لوحة إرشادية", "color": "#fb923c", "x": "21.351389", "y": "39.551111"}}, {"type": "Feature", "geometry": {"type": "Point", "coordinates": [39.55000000000003, 21.351389]}, "properties": {"layer": "signs", "name": "لوحة إرشادية", "color": "#fb923c", "x": "21.351389", "y": "39.55"}}, {"type": "Feature", "geometry": {"type": "Point", "coordinates": [39.514444, 21.378056]}, "properties": {"layer": "signs", "name": "لوحة إرشادية", "color": "#fb923c", "x": "21.378056", "y": "39.514444"}}, {"type": "Feature", "geometry": {"type": "Point", "coordinates": [39.51305600000002, 21.37888900000002]}, "properties": {"layer": "signs", "name": "لوحة إرشادية", "color": "#fb923c", "x": "21.378889", "y": "39.513056"}}, {"type": "Feature", "geometry": {"type": "Point", "coordinates": [39.51583299999997, 21.37722199999998]}, "properties": {"layer": "signs", "name": "لوحة إرشادية", "color": "#fb923c", "x": "21.377222", "y": "39.515833"}}, {"type": "Feature", "geometry": {"type": "Point", "coordinates": [39.53527799999999, 21.35388900000002]}, "properties": {"layer": "signs", "name": "لوحة إرشادية", "color": "#fb923c", "x": "21.353889", "y": "39.535278"}}, {"type": "Feature", "geometry": {"type": "Point", "coordinates": [39.53000000000002, 21.361667]}, "properties": {"layer": "signs", "name": "لوحة إرشادية", "color": "#fb923c", "x": "21.361667", "y": "39.53"}}, {"type": "Feature", "geometry": {"type": "Point", "coordinates": [39.56555600000001, 21.3525]}, "properties": {"layer": "signs", "name": "لوحة إرشادية", "color": "#fb923c", "x": "21.3525", "y": "39.565556"}}, {"type": "Feature", "geometry": {"type": "Point", "coordinates": [39.509444, 21.37999999999998]}, "properties": {"layer": "signs", "name": "لوحة إرشادية", "color": "#fb923c", "x": "21.38", "y": "39.509444"}}, {"type": "Feature", "geometry": {"type": "Point", "coordinates": [39.542222, 21.35111100000002]}, "properties": {"layer": "signs", "name": "لوحة إرشادية", "color": "#fb923c", "x": "21.351111", "y": "39.542222"}}, {"type": "Feature", "geometry": {"type": "Point", "coordinates": [39.52444400000002, 21.37027799999997]}, "properties": {"layer": "signs", "name": "لوحة إرشادية", "color": "#fb923c", "x": "21.370278", "y": "39.524444"}}, {"type": "Feature", "geometry": {"type": "Point", "coordinates": [39.53111100000002, 21.359444]}, "properties": {"layer": "signs", "name": "لوحة إرشادية", "color": "#fb923c", "x": "21.359444", "y": "39.531111"}}, {"type": "Feature", "geometry": {"type": "Point", "coordinates": [39.517222, 21.37611100000002]}, "properties": {"layer": "signs", "name": "لوحة إرشادية", "color": "#fb923c", "x": "21.376111", "y": "39.517222"}}, {"type": "Feature", "geometry": {"type": "Point", "coordinates": [39.516111, 21.376944]}, "properties": {"layer": "signs", "name": "لوحة إرشادية", "color": "#fb923c", "x": "21.376944", "y": "39.516111"}}, {"type": "Feature", "geometry": {"type": "Point", "coordinates": [39.51194399999998, 21.379167]}, "properties": {"layer": "signs", "name": "لوحة إرشادية", "color": "#fb923c", "x": "21.379167", "y": "39.511944"}}, {"type": "Feature", "geometry": {"type": "Point", "coordinates": [39.511111, 21.379722]}, "properties": {"layer": "signs", "name": "لوحة إرشادية", "color": "#fb923c", "x": "21.379722", "y": "39.511111"}}, {"type": "Feature", "geometry": {"type": "Point", "coordinates": [39.50916699999999, 21.380278]}, "properties": {"layer": "signs", "name": "لوحة إرشادية", "color": "#fb923c", "x": "21.380278", "y": "39.509167"}}, {"type": "Feature", "geometry": {"type": "Point", "coordinates": [39.54638900000001, 21.35111100000002]}, "properties": {"layer": "signs", "name": "لوحة إرشادية", "color": "#fb923c", "x": "21.351111", "y": "39.546389"}}, {"type": "Feature", "geometry": {"type": "Point", "coordinates": [39.54777799999999, 21.35111100000002]}, "properties": {"layer": "signs", "name": "لوحة إرشادية", "color": "#fb923c", "x": "21.351111", "y": "39.547778"}}, {"type": "Feature", "geometry": {"type": "Point", "coordinates": [39.51027799999999, 21.37999999999998]}, "properties": {"layer": "signs", "name": "لوحة إرشادية", "color": "#fb923c", "x": "21.38", "y": "39.510278"}}, {"type": "Feature", "geometry": {"type": "Point", "coordinates": [39.55833300000001, 21.351944]}, "properties": {"layer": "signs", "name": "لوحة إرشادية", "color": "#fb923c", "x": "21.351944", "y": "39.558333"}}, {"type": "Feature", "geometry": {"type": "Point", "coordinates": [39.66240000000001, 21.35994700000002]}, "properties": {"layer": "signs", "name": "لوحة إرشادية", "color": "#fb923c", "x": "21.359947", "y": "39.6624"}}, {"type": "Feature", "geometry": {"type": "Point", "coordinates": [39.49812099999998, 21.38004499999998]}, "properties": {"layer": "signs", "name": "لوحة إرشادية", "color": "#fb923c", "x": "21.380045", "y": "39.498121"}}, {"type": "Feature", "geometry": {"type": "Point", "coordinates": [39.56749999999998, 21.35222200000002]}, "properties": {"layer": "signs", "name": "لوحة إرشادية", "color": "#fb923c", "x": "21.352222", "y": "39.5675"}}, {"type": "Feature", "geometry": {"type": "Point", "coordinates": [39.58222200000002, 21.353056]}, "properties": {"layer": "signs", "name": "لوحة إرشادية", "color": "#fb923c", "x": "21.353056", "y": "39.582222"}}, {"type": "Feature", "geometry": {"type": "Point", "coordinates": [39.58222200000002, 21.35166699999998]}, "properties": {"layer": "signs", "name": "لوحة إرشادية", "color": "#fb923c", "x": "21.351667", "y": "39.582222"}}, {"type": "Feature", "geometry": {"type": "Point", "coordinates": [39.584722, 21.35277800000001]}, "properties": {"layer": "signs", "name": "لوحة إرشادية", "color": "#fb923c", "x": "21.352778", "y": "39.584722"}}, {"type": "Feature", "geometry": {"type": "Point", "coordinates": [39.579722, 21.353056]}, "properties": {"layer": "signs", "name": "لوحة إرشادية", "color": "#fb923c", "x": "21.353056", "y": "39.579722"}}, {"type": "Feature", "geometry": {"type": "Point", "coordinates": [39.57916699999997, 21.353056]}, "properties": {"layer": "signs", "name": "لوحة إرشادية", "color": "#fb923c", "x": "21.353056", "y": "39.579167"}}, {"type": "Feature", "geometry": {"type": "Point", "coordinates": [39.56333300000001, 21.351944]}, "properties": {"layer": "signs", "name": "لوحة إرشادية", "color": "#fb923c", "x": "21.351944", "y": "39.563333"}}, {"type": "Feature", "geometry": {"type": "Point", "coordinates": [39.58388900000002, 21.35277800000001]}, "properties": {"layer": "signs", "name": "لوحة إرشادية", "color": "#fb923c", "x": "21.352778", "y": "39.583889"}}, {"type": "Feature", "geometry": {"type": "Point", "coordinates": [39.57388899999999, 21.35277800000001]}, "properties": {"layer": "signs", "name": "لوحة إرشادية", "color": "#fb923c", "x": "21.352778", "y": "39.573889"}}, {"type": "Feature", "geometry": {"type": "Point", "coordinates": [39.56972200000002, 21.3525]}, "properties": {"layer": "signs", "name": "لوحة إرشادية", "color": "#fb923c", "x": "21.3525", "y": "39.569722"}}, {"type": "Feature", "geometry": {"type": "Point", "coordinates": [39.56472200000002, 21.351944]}, "properties": {"layer": "signs", "name": "لوحة إرشادية", "color": "#fb923c", "x": "21.351944", "y": "39.564722"}}, {"type": "Feature", "geometry": {"type": "Point", "coordinates": [39.58888900000001, 21.3525]}, "properties": {"layer": "signs", "name": "لوحة إرشادية", "color": "#fb923c", "x": "21.3525", "y": "39.588889"}}, {"type": "Feature", "geometry": {"type": "Point", "coordinates": [39.55277799999998, 21.35111100000002]}, "properties": {"layer": "signs", "name": "لوحة إرشادية", "color": "#fb923c", "x": "21.351111", "y": "39.552778"}}, {"type": "Feature", "geometry": {"type": "Point", "coordinates": [39.56527800000003, 21.351944]}, "properties": {"layer": "signs", "name": "لوحة إرشادية", "color": "#fb923c", "x": "21.351944", "y": "39.565278"}}, {"type": "Feature", "geometry": {"type": "Point", "coordinates": [39.55305600000001, 21.35111100000002]}, "properties": {"layer": "signs", "name": "لوحة إرشادية", "color": "#fb923c", "x": "21.351111", "y": "39.553056"}}, {"type": "Feature", "geometry": {"type": "Point", "coordinates": [39.54750000000001, 21.35055600000002]}, "properties": {"layer": "signs", "name": "لوحة إرشادية", "color": "#fb923c", "x": "21.350556", "y": "39.5475"}}, {"type": "Feature", "geometry": {"type": "Point", "coordinates": [39.57138900000002, 21.3525]}, "properties": {"layer": "signs", "name": "لوحة إرشادية", "color": "#fb923c", "x": "21.3525", "y": "39.571389"}}, {"type": "Feature", "geometry": {"type": "Point", "coordinates": [39.55555599999998, 21.351389]}, "properties": {"layer": "signs", "name": "لوحة إرشادية", "color": "#fb923c", "x": "21.351389", "y": "39.555556"}}, {"type": "Feature", "geometry": {"type": "Point", "coordinates": [39.57749999999997, 21.353056]}, "properties": {"layer": "signs", "name": "لوحة إرشادية", "color": "#fb923c", "x": "21.353056", "y": "39.5775"}}, {"type": "Feature", "geometry": {"type": "Point", "coordinates": [39.57, 21.3525]}, "properties": {"layer": "signs", "name": "لوحة إرشادية", "color": "#fb923c", "x": "21.3525", "y": "39.57"}}, {"type": "Feature", "geometry": {"type": "Point", "coordinates": [39.57833299999999, 21.353056]}, "properties": {"layer": "signs", "name": "لوحة إرشادية", "color": "#fb923c", "x": "21.353056", "y": "39.578333"}}, {"type": "Feature", "geometry": {"type": "Point", "coordinates": [39.57499999999999, 21.35277800000001]}, "properties": {"layer": "signs", "name": "لوحة إرشادية", "color": "#fb923c", "x": "21.352778", "y": "39.575"}}, {"type": "Feature", "geometry": {"type": "Point", "coordinates": [39.569444, 21.3525]}, "properties": {"layer": "signs", "name": "لوحة إرشادية", "color": "#fb923c", "x": "21.3525", "y": "39.569444"}}, {"type": "Feature", "geometry": {"type": "Point", "coordinates": [39.555278, 21.351389]}, "properties": {"layer": "signs", "name": "لوحة إرشادية", "color": "#fb923c", "x": "21.351389", "y": "39.555278"}}, {"type": "Feature", "geometry": {"type": "Point", "coordinates": [39.58833300000001, 21.3525]}, "properties": {"layer": "signs", "name": "لوحة إرشادية", "color": "#fb923c", "x": "21.3525", "y": "39.588333"}}, {"type": "Feature", "geometry": {"type": "Point", "coordinates": [39.57999999999998, 21.353056]}, "properties": {"layer": "signs", "name": "لوحة إرشادية", "color": "#fb923c", "x": "21.353056", "y": "39.58"}}, {"type": "Feature", "geometry": {"type": "Point", "coordinates": [39.58555599999998, 21.35277800000001]}, "properties": {"layer": "signs", "name": "لوحة إرشادية", "color": "#fb923c", "x": "21.352778", "y": "39.585556"}}, {"type": "Feature", "geometry": {"type": "Point", "coordinates": [39.58916699999999, 21.3525]}, "properties": {"layer": "signs", "name": "لوحة إرشادية", "color": "#fb923c", "x": "21.3525", "y": "39.589167"}}, {"type": "Feature", "geometry": {"type": "Point", "coordinates": [39.56277800000001, 21.351944]}, "properties": {"layer": "signs", "name": "لوحة إرشادية", "color": "#fb923c", "x": "21.351944", "y": "39.562778"}}, {"type": "Feature", "geometry": {"type": "Point", "coordinates": [39.59638899999998, 21.35222200000002]}, "properties": {"layer": "signs", "name": "لوحة إرشادية", "color": "#fb923c", "x": "21.352222", "y": "39.596389"}}, {"type": "Feature", "geometry": {"type": "Point", "coordinates": [39.63436700000001, 21.35262299999998]}, "properties": {"layer": "signs", "name": "لوحة إرشادية", "color": "#fb923c", "x": "21.352623", "y": "39.634367"}}, {"type": "Feature", "geometry": {"type": "Point", "coordinates": [39.64368800000001, 21.3529]}, "properties": {"layer": "signs", "name": "لوحة إرشادية", "color": "#fb923c", "x": "21.3529", "y": "39.643688"}}, {"type": "Feature", "geometry": {"type": "Point", "coordinates": [39.53861099999998, 21.35166699999998]}, "properties": {"layer": "signs", "name": "لوحة إرشادية", "color": "#fb923c", "x": "21.351667", "y": "39.538611"}}, {"type": "Feature", "geometry": {"type": "Point", "coordinates": [39.54027799999998, 21.35111100000002]}, "properties": {"layer": "signs", "name": "لوحة إرشادية", "color": "#fb923c", "x": "21.351111", "y": "39.540278"}}, {"type": "Feature", "geometry": {"type": "Point", "coordinates": [39.51805600000002, 21.37499999999999]}, "properties": {"layer": "signs", "name": "لوحة إرشادية", "color": "#fb923c", "x": "21.375", "y": "39.518056"}}, {"type": "Feature", "geometry": {"type": "Point", "coordinates": [39.51027799999999, 21.37944400000002]}, "properties": {"layer": "signs", "name": "لوحة إرشادية", "color": "#fb923c", "x": "21.379444", "y": "39.510278"}}, {"type": "Feature", "geometry": {"type": "Point", "coordinates": [39.52111099999999, 21.37222199999999]}, "properties": {"layer": "signs", "name": "لوحة إرشادية", "color": "#fb923c", "x": "21.372222", "y": "39.521111"}}, {"type": "Feature", "geometry": {"type": "Point", "coordinates": [39.530278, 21.36055600000001]}, "properties": {"layer": "signs", "name": "لوحة إرشادية", "color": "#fb923c", "x": "21.360556", "y": "39.530278"}}, {"type": "Feature", "geometry": {"type": "Point", "coordinates": [39.511111, 21.37888900000002]}, "properties": {"layer": "signs", "name": "لوحة إرشادية", "color": "#fb923c", "x": "21.378889", "y": "39.511111"}}, {"type": "Feature", "geometry": {"type": "Point", "coordinates": [39.51361099999998, 21.37777800000002]}, "properties": {"layer": "signs", "name": "لوحة إرشادية", "color": "#fb923c", "x": "21.377778", "y": "39.513611"}}, {"type": "Feature", "geometry": {"type": "Point", "coordinates": [39.54750000000001, 21.35055600000002]}, "properties": {"layer": "signs", "name": "لوحة إرشادية", "color": "#fb923c", "x": "21.350556", "y": "39.5475"}}, {"type": "Feature", "geometry": {"type": "Point", "coordinates": [39.512222, 21.378611]}, "properties": {"layer": "signs", "name": "لوحة إرشادية", "color": "#fb923c", "x": "21.378611", "y": "39.512222"}}, {"type": "Feature", "geometry": {"type": "Point", "coordinates": [39.54972200000001, 21.350833]}, "properties": {"layer": "signs", "name": "لوحة إرشادية", "color": "#fb923c", "x": "21.350833", "y": "39.549722"}}, {"type": "Feature", "geometry": {"type": "Point", "coordinates": [39.52500000000002, 21.36916700000001]}, "properties": {"layer": "signs", "name": "لوحة إرشادية", "color": "#fb923c", "x": "21.369167", "y": "39.525"}}, {"type": "Feature", "geometry": {"type": "Point", "coordinates": [39.52083300000001, 21.37250000000001]}, "properties": {"layer": "signs", "name": "لوحة إرشادية", "color": "#fb923c", "x": "21.3725", "y": "39.520833"}}, {"type": "Feature", "geometry": {"type": "Point", "coordinates": [39.528056, 21.365]}, "properties": {"layer": "signs", "name": "لوحة إرشادية", "color": "#fb923c", "x": "21.365", "y": "39.528056"}}, {"type": "Feature", "geometry": {"type": "Point", "coordinates": [39.53277800000001, 21.35611100000001]}, "properties": {"layer": "signs", "name": "لوحة إرشادية", "color": "#fb923c", "x": "21.356111", "y": "39.532778"}}, {"type": "Feature", "geometry": {"type": "Point", "coordinates": [39.51527799999998, 21.376944]}, "properties": {"layer": "signs", "name": "لوحة إرشادية", "color": "#fb923c", "x": "21.376944", "y": "39.515278"}}, {"type": "Feature", "geometry": {"type": "Point", "coordinates": [39.515556, 21.37666699999998]}, "properties": {"layer": "signs", "name": "لوحة إرشادية", "color": "#fb923c", "x": "21.376667", "y": "39.515556"}}, {"type": "Feature", "geometry": {"type": "Point", "coordinates": [39.515, 21.37722199999998]}, "properties": {"layer": "signs", "name": "لوحة إرشادية", "color": "#fb923c", "x": "21.377222", "y": "39.515"}}, {"type": "Feature", "geometry": {"type": "Point", "coordinates": [39.50861099999999, 21.379722]}, "properties": {"layer": "signs", "name": "لوحة إرشادية", "color": "#fb923c", "x": "21.379722", "y": "39.508611"}}, {"type": "Feature", "geometry": {"type": "Point", "coordinates": [39.52305600000001, 21.37083300000001]}, "properties": {"layer": "signs", "name": "لوحة إرشادية", "color": "#fb923c", "x": "21.370833", "y": "39.523056"}}, {"type": "Feature", "geometry": {"type": "Point", "coordinates": [39.52138900000001, 21.37194399999997]}, "properties": {"layer": "signs", "name": "لوحة إرشادية", "color": "#fb923c", "x": "21.371944", "y": "39.521389"}}, {"type": "Feature", "geometry": {"type": "Point", "coordinates": [39.51000000000001, 21.37944400000002]}, "properties": {"layer": "signs", "name": "لوحة إرشادية", "color": "#fb923c", "x": "21.379444", "y": "39.51"}}, {"type": "Feature", "geometry": {"type": "Point", "coordinates": [39.514444, 21.3775]}, "properties": {"layer": "signs", "name": "لوحة إرشادية", "color": "#fb923c", "x": "21.3775", "y": "39.514444"}}, {"type": "Feature", "geometry": {"type": "Point", "coordinates": [39.52416700000001, 21.36999999999999]}, "properties": {"layer": "signs", "name": "لوحة إرشادية", "color": "#fb923c", "x": "21.37", "y": "39.524167"}}, {"type": "Feature", "geometry": {"type": "Point", "coordinates": [39.515, 21.376944]}, "properties": {"layer": "signs", "name": "لوحة إرشادية", "color": "#fb923c", "x": "21.376944", "y": "39.515"}}, {"type": "Feature", "geometry": {"type": "Point", "coordinates": [39.51138900000002, 21.37888900000002]}, "properties": {"layer": "signs", "name": "لوحة إرشادية", "color": "#fb923c", "x": "21.378889", "y": "39.511389"}}, {"type": "Feature", "geometry": {"type": "Point", "coordinates": [39.52166699999999, 21.37194399999997]}, "properties": {"layer": "signs", "name": "لوحة إرشادية", "color": "#fb923c", "x": "21.371944", "y": "39.521667"}}, {"type": "Feature", "geometry": {"type": "Point", "coordinates": [39.51833299999999, 21.37444400000003]}, "properties": {"layer": "signs", "name": "لوحة إرشادية", "color": "#fb923c", "x": "21.374444", "y": "39.518333"}}, {"type": "Feature", "geometry": {"type": "Point", "coordinates": [39.512778, 21.37833299999998]}, "properties": {"layer": "signs", "name": "لوحة إرشادية", "color": "#fb923c", "x": "21.378333", "y": "39.512778"}}, {"type": "Feature", "geometry": {"type": "Point", "coordinates": [39.531944, 21.35722200000001]}, "properties": {"layer": "signs", "name": "لوحة إرشادية", "color": "#fb923c", "x": "21.357222", "y": "39.531944"}}, {"type": "Feature", "geometry": {"type": "Point", "coordinates": [39.64073100000003, 21.35280599999998]}, "properties": {"layer": "signs", "name": "لوحة إرشادية", "color": "#fb923c", "x": "21.352806", "y": "39.640731"}}, {"type": "Feature", "geometry": {"type": "Point", "coordinates": [39.43472200000001, 21.38888900000001]}, "properties": {"layer": "signs", "name": "لوحة إرشادية", "color": "#fb923c", "x": "21.388889", "y": "39.434722"}}, {"type": "Feature", "geometry": {"type": "Point", "coordinates": [39.43750000000001, 21.388333]}, "properties": {"layer": "signs", "name": "لوحة إرشادية", "color": "#fb923c", "x": "21.388333", "y": "39.4375"}}, {"type": "Feature", "geometry": {"type": "Point", "coordinates": [39.431111, 21.38888900000001]}, "properties": {"layer": "signs", "name": "لوحة إرشادية", "color": "#fb923c", "x": "21.388889", "y": "39.431111"}}, {"type": "Feature", "geometry": {"type": "Point", "coordinates": [39.43861100000001, 21.38749999999999]}, "properties": {"layer": "signs", "name": "لوحة إرشادية", "color": "#fb923c", "x": "21.3875", "y": "39.438611"}}, {"type": "Feature", "geometry": {"type": "Point", "coordinates": [39.43833299999999, 21.387778]}, "properties": {"layer": "signs", "name": "لوحة إرشادية", "color": "#fb923c", "x": "21.387778", "y": "39.438333"}}, {"type": "Feature", "geometry": {"type": "Point", "coordinates": [39.69611110999998, 21.37888888999997]}, "properties": {"layer": "signs", "name": "لوحة إرشادية", "color": "#fb923c", "x": "21.37888889", "y": "39.69611111"}}, {"type": "Feature", "geometry": {"type": "Point", "coordinates": [39.69972222000001, 21.38166667000003]}, "properties": {"layer": "signs", "name": "لوحة إرشادية", "color": "#fb923c", "x": "21.38166667", "y": "39.69972222"}}, {"type": "Feature", "geometry": {"type": "Point", "coordinates": [39.69972222000001, 21.38166667000003]}, "properties": {"layer": "signs", "name": "لوحة إرشادية", "color": "#fb923c", "x": "21.38166667", "y": "39.69972222"}}, {"type": "Feature", "geometry": {"type": "Point", "coordinates": [39.70694444000002, 21.39055556000001]}, "properties": {"layer": "signs", "name": "لوحة إرشادية", "color": "#fb923c", "x": "21.39055556", "y": "39.70694444"}}, {"type": "Feature", "geometry": {"type": "Point", "coordinates": [39.70833333000002, 21.39222222000001]}, "properties": {"layer": "signs", "name": "لوحة إرشادية", "color": "#fb923c", "x": "21.39222222", "y": "39.70833333"}}, {"type": "Feature", "geometry": {"type": "Point", "coordinates": [39.70027778000001, 21.38222221999999]}, "properties": {"layer": "signs", "name": "لوحة إرشادية", "color": "#fb923c", "x": "21.38222222", "y": "39.70027778"}}, {"type": "Feature", "geometry": {"type": "Point", "coordinates": [39.46944443999998, 21.3775]}, "properties": {"layer": "signs", "name": "لوحة إرشادية", "color": "#fb923c", "x": "21.3775", "y": "39.46944444"}}, {"type": "Feature", "geometry": {"type": "Point", "coordinates": [39.69361111000001, 21.3775]}, "properties": {"layer": "signs", "name": "لوحة إرشادية", "color": "#fb923c", "x": "21.3775", "y": "39.69361111"}}, {"type": "Feature", "geometry": {"type": "Point", "coordinates": [39.69833333, 21.38055556000002]}, "properties": {"layer": "signs", "name": "لوحة إرشادية", "color": "#fb923c", "x": "21.38055556", "y": "39.69833333"}}, {"type": "Feature", "geometry": {"type": "Point", "coordinates": [39.46499999999999, 21.37805556]}, "properties": {"layer": "signs", "name": "لوحة إرشادية", "color": "#fb923c", "x": "21.37805556", "y": "39.465"}}, {"type": "Feature", "geometry": {"type": "Point", "coordinates": [39.48222221999998, 21.37833333]}, "properties": {"layer": "signs", "name": "لوحة إرشادية", "color": "#fb923c", "x": "21.37833333", "y": "39.48222222"}}, {"type": "Feature", "geometry": {"type": "Point", "coordinates": [39.47111110999999, 21.3775]}, "properties": {"layer": "signs", "name": "لوحة إرشادية", "color": "#fb923c", "x": "21.3775", "y": "39.47111111"}}, {"type": "Feature", "geometry": {"type": "Point", "coordinates": [39.45972222, 21.37888888999997]}, "properties": {"layer": "signs", "name": "لوحة إرشادية", "color": "#fb923c", "x": "21.37888889", "y": "39.45972222"}}, {"type": "Feature", "geometry": {"type": "Point", "coordinates": [39.4975, 21.37999999999998]}, "properties": {"layer": "signs", "name": "لوحة إرشادية", "color": "#fb923c", "x": "21.38", "y": "39.4975"}}, {"type": "Feature", "geometry": {"type": "Point", "coordinates": [39.46277778000002, 21.37833333]}, "properties": {"layer": "signs", "name": "لوحة إرشادية", "color": "#fb923c", "x": "21.37833333", "y": "39.46277778"}}, {"type": "Feature", "geometry": {"type": "Point", "coordinates": [39.48083333000001, 21.37805556]}, "properties": {"layer": "signs", "name": "لوحة إرشادية", "color": "#fb923c", "x": "21.37805556", "y": "39.48083333"}}, {"type": "Feature", "geometry": {"type": "Point", "coordinates": [39.70909900000003, 21.39409699999998]}, "properties": {"layer": "signs", "name": "لوحة إرشادية", "color": "#fb923c", "x": "21.394097", "y": "39.709099"}}, {"type": "Feature", "geometry": {"type": "Point", "coordinates": [39.44472222000002, 21.38555556000001]}, "properties": {"layer": "signs", "name": "لوحة إرشادية", "color": "#fb923c", "x": "21.38555556", "y": "39.44472222"}}, {"type": "Feature", "geometry": {"type": "Point", "coordinates": [39.45833333000002, 21.37999999999998]}, "properties": {"layer": "signs", "name": "لوحة إرشادية", "color": "#fb923c", "x": "21.38", "y": "39.45833333"}}, {"type": "Feature", "geometry": {"type": "Point", "coordinates": [39.49611111000004, 21.38027778000002]}, "properties": {"layer": "signs", "name": "لوحة إرشادية", "color": "#fb923c", "x": "21.38027778", "y": "39.49611111"}}, {"type": "Feature", "geometry": {"type": "Point", "coordinates": [39.45083332999998, 21.38249999999999]}, "properties": {"layer": "signs", "name": "لوحة إرشادية", "color": "#fb923c", "x": "21.3825", "y": "39.45083333"}}, {"type": "Feature", "geometry": {"type": "Point", "coordinates": [39.47666666999999, 21.37833333]}, "properties": {"layer": "signs", "name": "لوحة إرشادية", "color": "#fb923c", "x": "21.37833333", "y": "39.47666667"}}, {"type": "Feature", "geometry": {"type": "Point", "coordinates": [39.47194444000004, 21.37805556]}, "properties": {"layer": "signs", "name": "لوحة إرشادية", "color": "#fb923c", "x": "21.37805556", "y": "39.47194444"}}, {"type": "Feature", "geometry": {"type": "Point", "coordinates": [39.45222222000002, 21.38138889000003]}, "properties": {"layer": "signs", "name": "لوحة إرشادية", "color": "#fb923c", "x": "21.38138889", "y": "39.45222222"}}, {"type": "Feature", "geometry": {"type": "Point", "coordinates": [39.435, 21.38888889]}, "properties": {"layer": "signs", "name": "لوحة إرشادية", "color": "#fb923c", "x": "21.38888889", "y": "39.435"}}, {"type": "Feature", "geometry": {"type": "Point", "coordinates": [39.44277778000001, 21.38583333000001]}, "properties": {"layer": "signs", "name": "لوحة إرشادية", "color": "#fb923c", "x": "21.38583333", "y": "39.44277778"}}, {"type": "Feature", "geometry": {"type": "Point", "coordinates": [39.70027778000001, 21.38194444000003]}, "properties": {"layer": "signs", "name": "لوحة إرشادية", "color": "#fb923c", "x": "21.38194444", "y": "39.70027778"}}, {"type": "Feature", "geometry": {"type": "Point", "coordinates": [39.70027778000001, 21.38194444000003]}, "properties": {"layer": "signs", "name": "لوحة إرشادية", "color": "#fb923c", "x": "21.38194444", "y": "39.70027778"}}, {"type": "Feature", "geometry": {"type": "Point", "coordinates": [39.47472221999998, 21.3775]}, "properties": {"layer": "signs", "name": "لوحة إرشادية", "color": "#fb923c", "x": "21.3775", "y": "39.47472222"}}, {"type": "Feature", "geometry": {"type": "Point", "coordinates": [39.50472222000001, 21.38027778000002]}, "properties": {"layer": "signs", "name": "لوحة إرشادية", "color": "#fb923c", "x": "21.38027778", "y": "39.50472222"}}, {"type": "Feature", "geometry": {"type": "Point", "coordinates": [39.49916666999997, 21.37999999999998]}, "properties": {"layer": "signs", "name": "لوحة إرشادية", "color": "#fb923c", "x": "21.38", "y": "39.49916667"}}, {"type": "Feature", "geometry": {"type": "Point", "coordinates": [39.50611111000002, 21.38083332999998]}, "properties": {"layer": "signs", "name": "لوحة إرشادية", "color": "#fb923c", "x": "21.38083333", "y": "39.50611111"}}, {"type": "Feature", "geometry": {"type": "Point", "coordinates": [39.50138888999999, 21.38083332999998]}, "properties": {"layer": "signs", "name": "لوحة إرشادية", "color": "#fb923c", "x": "21.38083333", "y": "39.50138889"}}, {"type": "Feature", "geometry": {"type": "Point", "coordinates": [39.45611111000001, 21.38055556000002]}, "properties": {"layer": "signs", "name": "لوحة إرشادية", "color": "#fb923c", "x": "21.38055556", "y": "39.45611111"}}, {"type": "Feature", "geometry": {"type": "Point", "coordinates": [39.50722222000002, 21.38055556000002]}, "properties": {"layer": "signs", "name": "لوحة إرشادية", "color": "#fb923c", "x": "21.38055556", "y": "39.50722222"}}, {"type": "Feature", "geometry": {"type": "Point", "coordinates": [39.71138889000001, 21.39611111]}, "properties": {"layer": "signs", "name": "لوحة إرشادية", "color": "#fb923c", "x": "21.39611111", "y": "39.71138889"}}, {"type": "Feature", "geometry": {"type": "Point", "coordinates": [39.70916666999999, 21.39305555999998]}, "properties": {"layer": "signs", "name": "لوحة إرشادية", "color": "#fb923c", "x": "21.39305556", "y": "39.70916667"}}, {"type": "Feature", "geometry": {"type": "Point", "coordinates": [39.70888888999999, 21.39277777999998]}, "properties": {"layer": "signs", "name": "لوحة إرشادية", "color": "#fb923c", "x": "21.39277778", "y": "39.70888889"}}, {"type": "Feature", "geometry": {"type": "Point", "coordinates": [39.70111111000002, 21.38305556]}, "properties": {"layer": "signs", "name": "لوحة إرشادية", "color": "#fb923c", "x": "21.38305556", "y": "39.70111111"}}, {"type": "Feature", "geometry": {"type": "Point", "coordinates": [39.70138889000002, 21.38333333]}, "properties": {"layer": "signs", "name": "لوحة إرشادية", "color": "#fb923c", "x": "21.38333333", "y": "39.70138889"}}, {"type": "Feature", "geometry": {"type": "Point", "coordinates": [39.70916666999999, 21.39333332999998]}, "properties": {"layer": "signs", "name": "لوحة إرشادية", "color": "#fb923c", "x": "21.39333333", "y": "39.70916667"}}, {"type": "Feature", "geometry": {"type": "Point", "coordinates": [39.69583332999999, 21.37861111000001]}, "properties": {"layer": "signs", "name": "لوحة إرشادية", "color": "#fb923c", "x": "21.37861111", "y": "39.69583333"}}, {"type": "Feature", "geometry": {"type": "Point", "coordinates": [39.70166667000002, 21.38361111]}, "properties": {"layer": "signs", "name": "لوحة إرشادية", "color": "#fb923c", "x": "21.38361111", "y": "39.70166667"}}, {"type": "Feature", "geometry": {"type": "Point", "coordinates": [39.70444444, 21.38722222000002]}, "properties": {"layer": "signs", "name": "لوحة إرشادية", "color": "#fb923c", "x": "21.38722222", "y": "39.70444444"}}, {"type": "Feature", "geometry": {"type": "Point", "coordinates": [39.70805555999998, 21.39194444000001]}, "properties": {"layer": "signs", "name": "لوحة إرشادية", "color": "#fb923c", "x": "21.39194444", "y": "39.70805556"}}, {"type": "Feature", "geometry": {"type": "Point", "coordinates": [39.50583333000002, 21.38027778000002]}, "properties": {"layer": "signs", "name": "لوحة إرشادية", "color": "#fb923c", "x": "21.38027778", "y": "39.50583333"}}, {"type": "Feature", "geometry": {"type": "Point", "coordinates": [39.47722221999999, 21.37777778]}, "properties": {"layer": "signs", "name": "لوحة إرشادية", "color": "#fb923c", "x": "21.37777778", "y": "39.47722222"}}, {"type": "Feature", "geometry": {"type": "Point", "coordinates": [39.49194444, 21.37944443999997]}, "properties": {"layer": "signs", "name": "لوحة إرشادية", "color": "#fb923c", "x": "21.37944444", "y": "39.49194444"}}, {"type": "Feature", "geometry": {"type": "Point", "coordinates": [39.45555556000001, 21.37999999999998]}, "properties": {"layer": "signs", "name": "لوحة إرشادية", "color": "#fb923c", "x": "21.38", "y": "39.45555556"}}, {"type": "Feature", "geometry": {"type": "Point", "coordinates": [39.45777778000002, 21.37944443999997]}, "properties": {"layer": "signs", "name": "لوحة إرشادية", "color": "#fb923c", "x": "21.37944444", "y": "39.45777778"}}, {"type": "Feature", "geometry": {"type": "Point", "coordinates": [39.46388888999999, 21.37805556]}, "properties": {"layer": "signs", "name": "لوحة إرشادية", "color": "#fb923c", "x": "21.37805556", "y": "39.46388889"}}, {"type": "Feature", "geometry": {"type": "Point", "coordinates": [39.44833333, 21.38361111]}, "properties": {"layer": "signs", "name": "لوحة إرشادية", "color": "#fb923c", "x": "21.38361111", "y": "39.44833333"}}, {"type": "Feature", "geometry": {"type": "Point", "coordinates": [39.44777778, 21.38388889]}, "properties": {"layer": "signs", "name": "لوحة إرشادية", "color": "#fb923c", "x": "21.38388889", "y": "39.44777778"}}, {"type": "Feature", "geometry": {"type": "Point", "coordinates": [39.50388888999996, 21.38083332999998]}, "properties": {"layer": "signs", "name": "لوحة إرشادية", "color": "#fb923c", "x": "21.38083333", "y": "39.50388889"}}, {"type": "Feature", "geometry": {"type": "Point", "coordinates": [39.50472222000001, 21.38083332999998]}, "properties": {"layer": "signs", "name": "لوحة إرشادية", "color": "#fb923c", "x": "21.38083333", "y": "39.50472222"}}, {"type": "Feature", "geometry": {"type": "Point", "coordinates": [39.48138889000002, 21.37861111000001]}, "properties": {"layer": "signs", "name": "لوحة إرشادية", "color": "#fb923c", "x": "21.37861111", "y": "39.48138889"}}, {"type": "Feature", "geometry": {"type": "Point", "coordinates": [39.45999999999999, 21.37944443999997]}, "properties": {"layer": "signs", "name": "لوحة إرشادية", "color": "#fb923c", "x": "21.37944444", "y": "39.46"}}, {"type": "Feature", "geometry": {"type": "Point", "coordinates": [39.50277778, 21.38083332999998]}, "properties": {"layer": "signs", "name": "لوحة إرشادية", "color": "#fb923c", "x": "21.38083333", "y": "39.50277778"}}, {"type": "Feature", "geometry": {"type": "Point", "coordinates": [39.46916666999998, 21.37805556]}, "properties": {"layer": "signs", "name": "لوحة إرشادية", "color": "#fb923c", "x": "21.37805556", "y": "39.46916667"}}, {"type": "Feature", "geometry": {"type": "Point", "coordinates": [39.47916667000001, 21.37861111000001]}, "properties": {"layer": "signs", "name": "لوحة إرشادية", "color": "#fb923c", "x": "21.37861111", "y": "39.47916667"}}, {"type": "Feature", "geometry": {"type": "Point", "coordinates": [39.50055556000002, 21.38083332999998]}, "properties": {"layer": "signs", "name": "لوحة إرشادية", "color": "#fb923c", "x": "21.38083333", "y": "39.50055556"}}, {"type": "Feature", "geometry": {"type": "Point", "coordinates": [39.4475, 21.38416667000001]}, "properties": {"layer": "signs", "name": "لوحة إرشادية", "color": "#fb923c", "x": "21.38416667", "y": "39.4475"}}, {"type": "Feature", "geometry": {"type": "Point", "coordinates": [39.42861110999999, 21.38861110999999]}, "properties": {"layer": "signs", "name": "لوحة إرشادية", "color": "#fb923c", "x": "21.38861111", "y": "39.42861111"}}, {"type": "Feature", "geometry": {"type": "Point", "coordinates": [39.70935600000003, 21.39442700000003]}, "properties": {"layer": "signs", "name": "لوحة إرشادية", "color": "#fb923c", "x": "21.394427", "y": "39.709356"}}, {"type": "Feature", "geometry": {"type": "Point", "coordinates": [39.47888889, 21.37833333]}, "properties": {"layer": "signs", "name": "لوحة إرشادية", "color": "#fb923c", "x": "21.37833333", "y": "39.47888889"}}, {"type": "Feature", "geometry": {"type": "Point", "coordinates": [39.5025, 21.38083332999998]}, "properties": {"layer": "signs", "name": "لوحة إرشادية", "color": "#fb923c", "x": "21.38083333", "y": "39.5025"}}, {"type": "Feature", "geometry": {"type": "Point", "coordinates": [39.47749999999999, 21.37777778]}, "properties": {"layer": "signs", "name": "لوحة إرشادية", "color": "#fb923c", "x": "21.37777778", "y": "39.4775"}}, {"type": "Feature", "geometry": {"type": "Point", "coordinates": [39.643255, 21.35287500000001]}, "properties": {"layer": "signs", "name": "لوحة إرشادية", "color": "#fb923c", "x": "21.352875", "y": "39.643255"}}, {"type": "Feature", "geometry": {"type": "Point", "coordinates": [39.69914900000002, 21.38175499999998]}, "properties": {"layer": "signs", "name": "لوحة إرشادية", "color": "#fb923c", "x": "21.381755", "y": "39.699149"}}, {"type": "Feature", "geometry": {"type": "Point", "coordinates": [39.70722222000002, 21.39083333000001]}, "properties": {"layer": "signs", "name": "لوحة إرشادية", "color": "#fb923c", "x": "21.39083333", "y": "39.70722222"}}, {"type": "Feature", "geometry": {"type": "Point", "coordinates": [39.69666667000003, 21.37916666999997]}, "properties": {"layer": "signs", "name": "لوحة إرشادية", "color": "#fb923c", "x": "21.37916667", "y": "39.69666667"}}, {"type": "Feature", "geometry": {"type": "Point", "coordinates": [39.50388888999996, 21.38027778000002]}, "properties": {"layer": "signs", "name": "لوحة إرشادية", "color": "#fb923c", "x": "21.38027778", "y": "39.50388889"}}, {"type": "Feature", "geometry": {"type": "Point", "coordinates": [39.48416666999999, 21.37916666999997]}, "properties": {"layer": "signs", "name": "لوحة إرشادية", "color": "#fb923c", "x": "21.37916667", "y": "39.48416667"}}]}