{"type": "FeatureCollection", "features": [{"type": "Feature", "geometry": {"type": "LineString", "coordinates": [[39.41861057430218, 21.38960314518687], [39.41869212536871, 21.38958037569602], [39.41943596782131, 21.38942169862941], [39.41964823465661, 21.38938770097664], [39.42040246197615, 21.38929114760369], [39.42096079827166, 21.38924289245586], [39.42166215312822, 21.38922296319327], [39.42243704389127, 21.38921240761948], [39.42301318279863, 21.38919406466047]]}, "properties": {"layer": "stormwater", "name": "طريق جدة_مكة", "segment_code": "1011081652", "from_street": "بداية منطقة 101108", "to_street": "نهاية منطقة 101108", "municipality": "بلدية الجنوب", "district": "المرسلات", "sub_district": "المرسلات 1", "length_m": "916.087414", "width_m": "18.5", "color": "#22d3ee"}}, {"type": "Feature", "geometry": {"type": "LineString", "coordinates": [[39.41460192614609, 21.39133753493894], [39.41489849663926, 21.3911465160936], [39.41549480258535, 21.39080175939306], [39.4163951004268, 21.39036540686887], [39.41707936635558, 21.39007779971847], [39.41743837013293, 21.38994303696587], [39.41781783916953, 21.38982447744269], [39.41861057430218, 21.38960314518687]]}, "properties": {"layer": "stormwater", "name": "طريق جدة_مكة", "segment_code": "1011081652R1", "from_street": "بداية منطقة 101108", "to_street": "نهاية منطقة 101108", "municipality": "بلدية الجنوب", "district": "المرسلات", "sub_district": "المرسلات 1", "length_m": "916.087414", "width_m": "18.5", "color": "#22d3ee"}}, {"type": "Feature", "geometry": {"type": "LineString", "coordinates": [[39.42301318279863, 21.38919406466047], [39.42672429445918, 21.38914641587299], [39.42674614934997, 21.38914628257256]]}, "properties": {"layer": "stormwater", "name": "طريق جدة_مكة", "segment_code": "1011091652", "from_street": "بداية منطقة 101109", "to_street": "نهاية منطقة 101109", "municipality": "بلدية الجنوب", "district": "المرسلات", "sub_district": "المرسلات 1", "length_m": "386.993749", "width_m": "18.5", "color": "#22d3ee"}}, {"type": "Feature", "geometry": {"type": "LineString", "coordinates": [[39.31321276261556, 21.42377605819435], [39.31310204110009, 21.4238114153059], [39.31244133363441, 21.42406365558036], [39.31178321768868, 21.42433501302968], [39.31139808452814, 21.42451502002594], [39.31070444887958, 21.42489401295077], [39.31025822093819, 21.42516019084468], [39.30958990403781, 21.42559534594924]]}, "properties": {"layer": "stormwater", "name": "طريق جدة_مكة", "segment_code": "1012041652", "from_street": "بداية منطقة 101204", "to_street": "نهاية منطقة 101204", "municipality": "بلدية الجنوب", "district": "الأجاويد", "sub_district": "الأجاويد 3", "length_m": "1726.951405", "width_m": "18.5", "color": "#22d3ee"}}, {"type": "Feature", "geometry": {"type": "LineString", "coordinates": [[39.31725522230693, 21.42310384980894], [39.31650383263878, 21.42314045281256], [39.31581459856464, 21.42318239338988], [39.31518674891923, 21.42327680623668], [39.31454620601686, 21.42340470837151], [39.31387764406777, 21.42356373858445], [39.31321276261556, 21.42377605819435]]}, "properties": {"layer": "stormwater", "name": "طريق جدة_مكة", "segment_code": "1012041652L1", "from_street": "بداية منطقة 101204", "to_street": "نهاية منطقة 101204", "municipality": "بلدية الجنوب", "district": "الأجاويد", "sub_district": "الأجاويد 3", "length_m": "1726.951405", "width_m": "18.5", "color": "#22d3ee"}}, {"type": "Feature", "geometry": {"type": "LineString", "coordinates": [[39.32137853425674, 21.42296022570118], [39.31985570259776, 21.42300738764643], [39.317524946336, 21.42309070955131], [39.31725522230693, 21.42310384980894]]}, "properties": {"layer": "stormwater", "name": "طريق جدة_مكة", "segment_code": "1012041652L2", "from_street": "بداية منطقة 101204", "to_street": "نهاية منطقة 101204", "municipality": "بلدية الجنوب", "district": "الأجاويد", "sub_district": "الأجاويد 3", "length_m": "1726.951405", "width_m": "18.5", "color": "#22d3ee"}}, {"type": "Feature", "geometry": {"type": "LineString", "coordinates": [[39.32546623091502, 21.42252086537071], [39.3245041916169, 21.42272831781045], [39.32357516103393, 21.4228544231342], [39.32290638588476, 21.42291069564134], [39.3216656935123, 21.42295133067933], [39.32137853425674, 21.42296022570118]]}, "properties": {"layer": "stormwater", "name": "طريق جدة_مكة", "segment_code": "1012041652L3", "from_street": "بداية منطقة 101204", "to_street": "نهاية منطقة 101204", "municipality": "بلدية الجنوب", "district": "الأجاويد", "sub_district": "الأجاويد 3", "length_m": "1726.951405", "width_m": "18.5", "color": "#22d3ee"}}, {"type": "Feature", "geometry": {"type": "LineString", "coordinates": [[39.32942545239985, 21.4209943359991], [39.32876302241486, 21.42135131337742], [39.32836211876111, 21.42154429851181], [39.32798567171172, 21.42171428569246], [39.32771478465, 21.42182382503323], [39.32725563756975, 21.42200257825407], [39.32648263325002, 21.42225652771078], [39.32599123192484, 21.42239804801065], [39.32548598974448, 21.42251521077244]]}, "properties": {"layer": "stormwater", "name": "طريق جدة_مكة", "segment_code": "1015011652", "from_street": "بداية منطقة 101501", "to_street": "نهاية منطقة 101501", "municipality": "بلدية الجنوب", "district": "الشفا", "sub_district": "الشفا 1", "length_m": "2660.838638", "width_m": "18.5", "color": "#22d3ee"}}, {"type": "Feature", "geometry": {"type": "LineString", "coordinates": [[39.33280227496257, 21.4185446506416], [39.33243980512862, 21.41883542635205], [39.33200708999326, 21.41918052210868], [39.33157590088492, 21.41952417986744], [39.33113246192347, 21.41987072847184], [39.33085109670563, 21.42008643235044], [39.33056664222228, 21.42029066819652], [39.33029287999197, 21.42048197315117], [39.33008638712581, 21.42061577143093], [39.32943620594803, 21.42098854143341], [39.32942545239985, 21.4209943359991]]}, "properties": {"layer": "stormwater", "name": "طريق جدة_مكة", "segment_code": "1015011652L1", "from_street": "بداية منطقة 101501", "to_street": "نهاية منطقة 101501", "municipality": "بلدية الجنوب", "district": "الشفا", "sub_district": "الشفا 1", "length_m": "2660.838638", "width_m": "18.5", "color": "#22d3ee"}}, {"type": "Feature", "geometry": {"type": "LineString", "coordinates": [[39.3362202787528, 21.41615059776947], [39.33581020986921, 21.41636310494699], [39.3354430670704, 21.41657325107236], [39.33499949998857, 21.4168552661258], [39.33473492321032, 21.41703938786527], [39.33442754563426, 21.41726232171952], [39.3338755546235, 21.41769228472527], [39.3333954163023, 21.41806186242504], [39.33286639860386, 21.41849321119149], [39.33280227496257, 21.4185446506416]]}, "properties": {"layer": "stormwater", "name": "طريق جدة_مكة", "segment_code": "1015011652L2", "from_street": "بداية منطقة 101501", "to_street": "نهاية منطقة 101501", "municipality": "بلدية الجنوب", "district": "الشفا", "sub_district": "الشفا 1", "length_m": "2660.838638", "width_m": "18.5", "color": "#22d3ee"}}, {"type": "Feature", "geometry": {"type": "LineString", "coordinates": [[39.34031753398623, 21.41511559045974], [39.33984355428137, 21.41513436411534], [39.33959087367737, 21.41515926024688], [39.33892478187502, 21.41525383999769], [39.33843640485893, 21.41536240059266], [39.33794809211525, 21.41549964695059], [39.33739858122489, 21.41566857016884], [39.33680630282638, 21.41589064696044], [39.33629367249002, 21.41611256275307], [39.3362202787528, 21.41615059776947]]}, "properties": {"layer": "stormwater", "name": "طريق جدة_مكة", "segment_code": "1015011652L3", "from_street": "بداية منطقة 101501", "to_street": "نهاية منطقة 101501", "municipality": "بلدية الجنوب", "district": "الشفا", "sub_district": "الشفا 1", "length_m": "2660.838638", "width_m": "18.5", "color": "#22d3ee"}}, {"type": "Feature", "geometry": {"type": "LineString", "coordinates": [[39.34456108295259, 21.41554303885611], [39.34409799893175, 21.41546991986247], [39.34306060156823, 21.41529705981299], [39.34197886821947, 21.41516014133846], [39.34108725362166, 21.41510028228105], [39.34079774512068, 21.41509656878366], [39.34031753398623, 21.41511559045974]]}, "properties": {"layer": "stormwater", "name": "طريق جدة_مكة", "segment_code": "1015011652L4", "from_street": "بداية منطقة 101501", "to_street": "نهاية منطقة 101501", "municipality": "بلدية الجنوب", "district": "الشفا", "sub_district": "الشفا 1", "length_m": "2660.838638", "width_m": "18.5", "color": "#22d3ee"}}, {"type": "Feature", "geometry": {"type": "LineString", "coordinates": [[39.34877119488759, 21.41625821999885], [39.34742471657385, 21.41601527007447], [39.34639190987829, 21.41584385509859], [39.34537135605454, 21.41567097460553], [39.34456108295259, 21.41554303885611]]}, "properties": {"layer": "stormwater", "name": "طريق جدة_مكة", "segment_code": "1015011652L5", "from_street": "بداية منطقة 101501", "to_street": "نهاية منطقة 101501", "municipality": "بلدية الجنوب", "district": "الشفا", "sub_district": "الشفا 1", "length_m": "2660.838638", "width_m": "18.5", "color": "#22d3ee"}}, {"type": "Feature", "geometry": {"type": "LineString", "coordinates": [[39.35281084600007, 21.41664004300003], [39.35277073600002, 21.41664156000007], [39.35273062200002, 21.41664295500004], [39.35269050300008, 21.41664422600007], [39.35265038100005, 21.41664537500003], [39.35261025600005, 21.41664640000005], [39.35257012700004, 21.41664730300005], [39.35252999600004, 21.41664808200005], [39.35248986300007, 21.41664873900004], [39.35244972800007, 21.41664927200003], [39.35240959100003, 21.41664968300006], [39.35236945400004, 21.41664997000004], [39.35232931500008, 21.41665013500005], [39.35228917700005, 21.41665017600008], [39.35224903800002, 21.41665009500002], [39.35220890000005, 21.41664989000003], [39.35216876300007, 21.41664956300008], [39.35212862700007, 21.41664911200007], [39.35208849200006, 21.41664853800006], [39.35204836000003, 21.41664784200003], [39.35200822900003, 21.41664702200006], [39.35196810200006, 21.41664607900003], [39.35192797700006, 21.41664501300005], [39.35188785600008, 21.41664382500005], [39.35184773900005, 21.41664251300006], [39.35180762600004, 21.41664107900004], [39.35176751800003, 21.41663952100004], [39.35172741400004, 21.41663784100007], [39.35168731600004, 21.41663603700005], [39.35164722400003, 21.41663411100006], [39.35160713700003, 21.41663206200008], [39.35156705800006, 21.41662989000002], [39.35152698500008, 21.41662759500002], [39.35148691900002, 21.41662517700007], [39.35144686100006, 21.41662263700005], [39.35140681100006, 21.41661997400007], [39.35136676900004, 21.41661718800003], [39.35132673600003, 21.41661427900004], [39.35128671200005, 21.41661124800004], [39.35124669700008, 21.41660809300004], [39.35120669200006, 21.41660481700006], [39.35116669800004, 21.41660141800003], [39.35112671400003, 21.41659789600004], [39.35108674100007, 21.41659425100005], [39.35104678000005, 21.41659048400004], [39.35100683000007, 21.41658659500007], [39.35096689200003, 21.41658258300004], [39.35092696700008, 21.41657844900004], [39.35088705500004, 21.41657419300003], [39.35084715600004, 21.41656981400007], [39.35080727000008, 21.41656531300004], [39.35076739900006, 21.41656068900005], [39.35072754200007, 21.41655594400004], [39.35068723300003, 21.41655084200005], [39.35064692300006, 21.41654574100005], [39.35060661400007, 21.41654064000005], [39.35056630500003, 21.41653553900005], [39.35052599600004, 21.41653043700006], [39.35048568700006, 21.41652533600006], [39.35044537700003, 21.41652023500006], [39.35040506800004, 21.41651513300008], [39.35036475900006, 21.41651003200008], [39.35032445000007, 21.41650493100008], [39.35028414000004, 21.41649983000008], [39.35024383100006, 21.41649472800003], [39.35020352200007, 21.41648962700003], [39.35016373500008, 21.41648319900003], [39.35012394800003, 21.41647677100008], [39.35008416100004, 21.41647034300007], [39.35004437500004, 21.41646391500007], [39.35000458800005, 21.41645748700006], [39.34996480100006, 21.41645105900005], [39.34992501400006, 21.41644463100005], [39.34988522700007, 21.41643820300004], [39.34984544000002, 21.41643177500004], [39.34980565300003, 21.41642534700003], [39.34976586600004, 21.41641891900002], [39.34972608000004, 21.41641249100007], [39.34968629300005, 21.41640606300007], [39.34964650600006, 21.41639963500006], [39.34960671900006, 21.41639320700006], [39.34956693200007, 21.41638677900005], [39.34952714500002, 21.41638035200003], [39.34948735800003, 21.41637392400003], [39.34944757200003, 21.41636749600008], [39.34940778500004, 21.41636106800007], [39.34936799800005, 21.41635464000007], [39.34932821100006, 21.41634821200006], [39.34928842400006, 21.41634178400005], [39.34924863700007, 21.41633535600005], [39.34920885000002, 21.41632892800004], [39.34916906400008, 21.41632250000004], [39.34912927700003, 21.41631607200003], [39.34908949000004, 21.41630964400002], [39.34904970300005, 21.41630321600007], [39.34900991600006, 21.41629678800007], [39.34897012900007, 21.41629036000006], [39.34893034200007, 21.41628393200006], [39.34889055500003, 21.41627750400005], [39.34885076900008, 21.41627107600004], [39.34881098200003, 21.41626464800004], [39.34877119500004, 21.41625822000003]]}, "properties": {"layer": "stormwater", "name": "طريق جدة_مكة", "segment_code": "1017201652", "from_street": "بداية منطقة 101720", "to_street": "نهاية منطقة 101720", "municipality": "بلدية الجنوب", "district": "أبوجعالة", "sub_district": "أبوجعالة 1", "length_m": "2081.46778", "width_m": "18.5", "color": "#22d3ee"}}, {"type": "Feature", "geometry": {"type": "LineString", "coordinates": [[39.35677502900006, 21.41585715800005], [39.35673729200005, 21.41587092900005], [39.35669951300008, 21.41588458300004], [39.35666169100006, 21.41589812000007], [39.35662382800007, 21.41591154000002], [39.35658592300007, 21.41592484200004], [39.35654797700005, 21.41593802700004], [39.35650999100005, 21.41595109400004], [39.35647196400004, 21.41596404400008], [39.35643389700004, 21.41597687500007], [39.35639579100007, 21.41598958900005], [39.35635764600005, 21.41600218400004], [39.35631946100006, 21.41601466100008], [39.35628123900005, 21.41602702000006], [39.35624297800007, 21.41603926000005], [39.35620467900003, 21.41605138200003], [39.35616634300004, 21.41606338500003], [39.35612797000005, 21.41607526900003], [39.35608956000004, 21.41608703400004], [39.35605111500007, 21.41609868000006], [39.35601263300003, 21.41611020700003], [39.35597411500004, 21.41612161500007], [39.35593556300006, 21.41613290300006], [39.35589697500006, 21.41614407100008], [39.35585835400008, 21.41615512000004], [39.35581969800006, 21.41616605000007], [39.35578100800006, 21.41617685900007], [39.35574228600007, 21.41618754900003], [39.35570353000003, 21.41619811800007], [39.35566474200004, 21.41620856800006], [39.35562592100007, 21.41621889700008], [39.35558706900008, 21.41622910600006], [39.35554818500003, 21.41623919400007], [39.35550927000003, 21.41624916200004], [39.35547032500006, 21.41625900900004], [39.35543134900007, 21.41626873600006], [39.35539234300006, 21.41627834100007], [39.35535330800008, 21.41628782600003], [39.35531424300007, 21.41629719000002], [39.35527515000007, 21.41630643200006], [39.35523602800004, 21.41631555400005], [39.35519687800007, 21.41632455400003], [39.35515770100005, 21.41633343300003], [39.35511849600005, 21.41634219100007], [39.35507926400004, 21.41635082700003], [39.35504000500003, 21.41635934100003], [39.35500072100007, 21.41636773400006], [39.35496141000004, 21.41637600400003], [39.35492207400006, 21.41638415300002], [39.35488271300005, 21.41639218100005], [39.35484332800007, 21.41640008600007], [39.35480391800007, 21.41640786900007], [39.35476448400004, 21.41641553000005], [39.35472502700003, 21.41642306800003], [39.35468554600004, 21.41643048500003], [39.35464604300006, 21.41643777900003], [39.35460651700004, 21.41644495000003], [39.35456696900008, 21.41645199900006], [39.35452740000005, 21.41645892600008], [39.35448780900003, 21.41646573000003], [39.35444819700007, 21.41647241100003], [39.35440856500003, 21.41647896900002], [39.35436891300003, 21.41648540500006], [39.35432924100007, 21.41649171700004], [39.35428954900004, 21.41649790700006], [39.35424983900003, 21.41650397400002], [39.35421011000005, 21.41650991700004], [39.35417036300004, 21.41651573800004], [39.35413059800004, 21.41652143500005], [39.35409081500006, 21.41652700900005], [39.35405101500004, 21.41653246000004], [39.35401119900007, 21.41653778700004], [39.35397136700004, 21.41654299100003], [39.35393151800002, 21.41654807200007], [39.35389165400005, 21.41655302900006], [39.35385177500007, 21.41655786300004], [39.35381188100007, 21.41656257300008], [39.35377197200006, 21.41656715900007], [39.35373205000008, 21.41657162100006], [39.35369211300008, 21.41657596000005], [39.35365216400004, 21.41658017500004], [39.35361220200008, 21.41658426700008], [39.35357222700003, 21.41658823400007], [39.35353224000005, 21.41659207800006], [39.35349224200007, 21.41659579800006], [39.35345223200005, 21.41659939300007], [39.35341221100003, 21.41660286500007], [39.35337218000006, 21.41660621300002], [39.35333213800004, 21.41660943600004], [39.35329208700006, 21.41661253600006], [39.35325202600006, 21.41661551100003], [39.35321195600005, 21.41661836300005], [39.35317187800007, 21.41662109000004], [39.35313179100007, 21.41662369300008], [39.35309169600004, 21.41662617200006], [39.35305159400008, 21.41662852600007], [39.35301148500002, 21.41663075600007], [39.35297136900004, 21.41663286200003], [39.35293124700007, 21.41663484400004], [39.35289111900005, 21.41663670100007], [39.35285098500003, 21.41663843400005], [39.35281084600007, 21.41664004300003]]}, "properties": {"layer": "stormwater", "name": "طريق جدة_مكة", "segment_code": "1017201652L1", "from_street": "بداية منطقة 101720", "to_street": "نهاية منطقة 101720", "municipality": "بلدية الجنوب", "district": "أبوجعالة", "sub_district": "أبوجعالة 1", "length_m": "2081.46778", "width_m": "18.5", "color": "#22d3ee"}}, {"type": "Feature", "geometry": {"type": "LineString", "coordinates": [[39.36025097600003, 21.41390827100003], [39.36022340100004, 21.41392981000007], [39.36019582600005, 21.41395135000005], [39.36016825200005, 21.41397289000003], [39.36014067700006, 21.41399443000006], [39.36011310200007, 21.41401597000004], [39.36008552700008, 21.41403751000007], [39.36005381900003, 21.41406175900005], [39.36002203300006, 21.41408590700007], [39.35999017100005, 21.41410995400003], [39.35995823200005, 21.41413389800005], [39.35992621600008, 21.41415774000006], [39.35989412400005, 21.41418147900004], [39.35986195700008, 21.41420511600006], [39.35982971400006, 21.41422865000004], [39.35979739600003, 21.41425208000004], [39.35976500300006, 21.41427540700005], [39.35973253600002, 21.41429863000008], [39.35969999500003, 21.41432175000006], [39.35966738000008, 21.41434476500007], [39.35963469200004, 21.41436767600004], [39.35960193000005, 21.41439048200004], [39.35956909600003, 21.41441318300002], [39.35953618900004, 21.41443577900003], [39.35950321000007, 21.41445827000007], [39.35947015900007, 21.41448065500003], [39.35943703700008, 21.41450293400004], [39.35940384400004, 21.41452510700003], [39.35937058000007, 21.41454717400006], [39.35933724600005, 21.41456913500002], [39.35930384200003, 21.41459098900003], [39.35927036800007, 21.41461273600004], [39.35923682400005, 21.41463437500005], [39.35920321200007, 21.41465590800004], [39.35916953000003, 21.41467733200005], [39.35913578100008, 21.41469864900006], [39.35910196300006, 21.41471985800007], [39.35906807800006, 21.41474095900003], [39.35903412600004, 21.41476195100006], [39.35900010600005, 21.41478283400005], [39.35896602000003, 21.41480360900005], [39.35893186800007, 21.41482427400007], [39.35889765000007, 21.41484483000005], [39.35886336600004, 21.41486527700005], [39.35882901700006, 21.41488561300002], [39.35879460300004, 21.41490584000007], [39.35876012500006, 21.41492595700004], [39.35872558200003, 21.41494596300004], [39.35869097600005, 21.41496585900006], [39.35865630600006, 21.41498564400007], [39.35862157300005, 21.41500531800006], [39.35858677800007, 21.41502488100002], [39.35855192000002, 21.41504433200004], [39.35851699900007, 21.41506367200003], [39.35848201800007, 21.41508290000007], [39.35844697500005, 21.41510201600005], [39.35841187100004, 21.41512102000007], [39.35837670600006, 21.41513991100004], [39.35834148100002, 21.41515869000006], [39.35830619700005, 21.41517735700006], [39.35827085200003, 21.41519591000002], [39.35823544900006, 21.41521435000004], [39.35819998700003, 21.41523267700006], [39.35816446600006, 21.41525089000004], [39.35812888800007, 21.41526899000007], [39.35809325100007, 21.41528697600006], [39.35805755800004, 21.41530484800006], [39.35802180700006, 21.41532260500003], [39.35798600000004, 21.41534024800006], [39.35795013600006, 21.41535777700005], [39.35791421700003, 21.41537519000008], [39.35787824200003, 21.41539248900006], [39.35784221200004, 21.41540967300006], [39.35780612700006, 21.41542674100003], [39.35776998800003, 21.41544369400003], [39.35773379500006, 21.41546053100006], [39.35769754800003, 21.41547725200007], [39.35766124800006, 21.41549385700006], [39.35762489400003, 21.41551034600008], [39.35758848900008, 21.41552671900007], [39.35755203100007, 21.41554297500005], [39.35751552100004, 21.41555911500006], [39.35747896000004, 21.41557513800007], [39.35744234800006, 21.41559104300006], [39.35740568500006, 21.41560683200004], [39.35736897200007, 21.41562250300007], [39.35733220900005, 21.41563805700002], [39.35729539700003, 21.41565349300004], [39.35725853500003, 21.41566881100005], [39.35722162400003, 21.41568401100005], [39.35718466500003, 21.41569909400005], [39.35714765800003, 21.41571405700006], [39.35711060400007, 21.41572890300006], [39.35707350200005, 21.41574363000007], [39.35703635300007, 21.41575823800002], [39.35699915700008, 21.41577272700005], [39.35696191600005, 21.41578709700008], [39.35692462800006, 21.41580134900005], [39.35688729600002, 21.41581548000005], [39.35684991800008, 21.41582949300005], [39.35681249600003, 21.41584338500007], [39.35677502900006, 21.41585715800005]]}, "properties": {"layer": "stormwater", "name": "طريق جدة_مكة", "segment_code": "1017201652L2", "from_street": "بداية منطقة 101720", "to_street": "نهاية منطقة 101720", "municipality": "بلدية الجنوب", "district": "أبوجعالة", "sub_district": "أبوجعالة 1", "length_m": "2081.46778", "width_m": "18.5", "color": "#22d3ee"}}, {"type": "Feature", "geometry": {"type": "LineString", "coordinates": [[39.362950380599, 21.41106681159232], [39.3621293270164, 21.41205254706311], [39.36160236331462, 21.41265251425827], [39.36050594719132, 21.41370910240171], [39.36025097636038, 21.4139082705368]]}, "properties": {"layer": "stormwater", "name": "طريق جدة_مكة", "segment_code": "1017201652L3", "from_street": "بداية منطقة 101720", "to_street": "نهاية منطقة 101720", "municipality": "بلدية الجنوب", "district": "أبوجعالة", "sub_district": "أبوجعالة 1", "length_m": "2081.46778", "width_m": "18.5", "color": "#22d3ee"}}, {"type": "Feature", "geometry": {"type": "LineString", "coordinates": [[39.36543308443886, 21.40804698690022], [39.36536679504677, 21.40812623892225], [39.36504227805791, 21.40851421283969], [39.36415276595708, 21.40959906031916], [39.36308381521132, 21.41090661168806], [39.362950380599, 21.41106681159232]]}, "properties": {"layer": "stormwater", "name": "طريق جدة_مكة", "segment_code": "1017201652L4", "from_street": "بداية منطقة 101720", "to_street": "نهاية منطقة 101720", "municipality": "بلدية الجنوب", "district": "أبوجعالة", "sub_district": "أبوجعالة 1", "length_m": "2081.46778", "width_m": "18.5", "color": "#22d3ee"}}, {"type": "Feature", "geometry": {"type": "LineString", "coordinates": [[39.36767669685872, 21.40532848752032], [39.36753965143658, 21.40549529187831], [39.36725461342419, 21.40584302257812], [39.36691865516856, 21.40624536836302], [39.36657660904194, 21.40666398179857], [39.36622947518647, 21.4070902565578], [39.36596276559511, 21.40741977638892], [39.36573266323503, 21.40768801864328], [39.36554741190971, 21.4079255636852], [39.36547828333321, 21.40801420577333]]}, "properties": {"layer": "stormwater", "name": "طريق جدة_مكة", "segment_code": "1017211652", "from_street": "بداية منطقة 101721", "to_street": "نهاية منطقة 101721", "municipality": "بلدية الجنوب", "district": "أبوجعالة", "sub_district": "أبوجعالة 1", "length_m": "1122.019717", "width_m": "18.5", "color": "#22d3ee"}}, {"type": "Feature", "geometry": {"type": "LineString", "coordinates": [[39.369975343462, 21.40272158356854], [39.3698416623004, 21.40283769016004], [39.3694556679753, 21.40323345818821], [39.36914915547824, 21.40356498350267], [39.36883454559987, 21.40392521245009], [39.36851691072921, 21.40430170337321], [39.36823395333867, 21.40466281843317], [39.36789696771194, 21.40506038706308], [39.36767669685872, 21.40532848752032]]}, "properties": {"layer": "stormwater", "name": "طريق جدة_مكة", "segment_code": "1017211652L1", "from_street": "بداية منطقة 101721", "to_street": "نهاية منطقة 101721", "municipality": "بلدية الجنوب", "district": "أبوجعالة", "sub_district": "أبوجعالة 1", "length_m": "1122.019717", "width_m": "18.5", "color": "#22d3ee"}}, {"type": "Feature", "geometry": {"type": "LineString", "coordinates": [[39.37283046614499, 21.40066751972556], [39.37259952472147, 21.40079771629198], [39.37224061888653, 21.40099836220915], [39.37186440697086, 21.4012200821242], [39.3716217886095, 21.40137648330016], [39.37129767395028, 21.40160765010808], [39.37097974156811, 21.40186174991072], [39.37058944335399, 21.40216764546775], [39.37032251397624, 21.40240250764444], [39.37010656281713, 21.40260761458467], [39.369975343462, 21.40272158356854]]}, "properties": {"layer": "stormwater", "name": "طريق جدة_مكة", "segment_code": "1017211652L2", "from_street": "بداية منطقة 101721", "to_street": "نهاية منطقة 101721", "municipality": "بلدية الجنوب", "district": "أبوجعالة", "sub_district": "أبوجعالة 1", "length_m": "1122.019717", "width_m": "18.5", "color": "#22d3ee"}}, {"type": "Feature", "geometry": {"type": "LineString", "coordinates": [[39.40324931669178, 21.40262235899747], [39.40314490766242, 21.4026950621813], [39.40267340795079, 21.40296751974064], [39.40236752559903, 21.40312842032856], [39.40195198966563, 21.40333022116097], [39.4016001608923, 21.40349242494897], [39.40124316464723, 21.40363193076614], [39.40079813541815, 21.40378479412292], [39.40026248512307, 21.40393787178766], [39.39994997207879, 21.40400913893423], [39.39959663329709, 21.40408647769843], [39.39944551757773, 21.40411240160611]]}, "properties": {"layer": "stormwater", "name": "طريق جدة_مكة", "segment_code": "1020101652", "from_street": "بداية منطقة 102010", "to_street": "نهاية منطقة 102010", "municipality": "بلدية الجنوب", "district": "الأثير", "sub_district": "الأثير 1", "length_m": "4595.560957", "width_m": "18.5", "color": "#22d3ee"}}, {"type": "Feature", "geometry": {"type": "LineString", "coordinates": [[39.40615489482671, 21.39986407163229], [39.40584012279953, 21.40023229124547], [39.40556787325825, 21.4005520852467], [39.40532226577216, 21.40081444181872], [39.40496205944373, 21.40117508712014], [39.40475208179655, 21.40139910871447], [39.40452422596822, 21.40161958717192], [39.40429382554727, 21.40184365747162], [39.40395253600656, 21.40212297657758], [39.40351179286372, 21.40243958804291], [39.40324931669178, 21.40262235899747]]}, "properties": {"layer": "stormwater", "name": "طريق جدة_مكة", "segment_code": "1020101652L1", "from_street": "بداية منطقة 102010", "to_street": "نهاية منطقة 102010", "municipality": "بلدية الجنوب", "district": "الأثير", "sub_district": "الأثير 1", "length_m": "4595.560957", "width_m": "18.5", "color": "#22d3ee"}}, {"type": "Feature", "geometry": {"type": "LineString", "coordinates": [[39.40878207737058, 21.39685077823193], [39.40841899823832, 21.39727133487814], [39.40802590975917, 21.39773485949578], [39.40761371066311, 21.39821157746659], [39.40727529547546, 21.39860205544563], [39.40686815736258, 21.39906441615946], [39.40658567802618, 21.39937587016105], [39.40622305760891, 21.39978433479146], [39.40615489482671, 21.39986407163229]]}, "properties": {"layer": "stormwater", "name": "طريق جدة_مكة", "segment_code": "1020101652L2", "from_street": "بداية منطقة 102010", "to_street": "نهاية منطقة 102010", "municipality": "بلدية الجنوب", "district": "الأثير", "sub_district": "الأثير 1", "length_m": "4595.560957", "width_m": "18.5", "color": "#22d3ee"}}, {"type": "Feature", "geometry": {"type": "LineString", "coordinates": [[39.41143076415139, 21.39385419740394], [39.41117855396805, 21.39415092633483], [39.41078924138282, 21.39458934782563], [39.41038724309348, 21.39505648486188], [39.41000558621437, 21.39549608115406], [39.40963150194113, 21.3959057755478], [39.40920398787649, 21.39637894878755], [39.40880574564876, 21.39682336329257], [39.40878207737058, 21.39685077823193]]}, "properties": {"layer": "stormwater", "name": "طريق جدة_مكة", "segment_code": "1020101652L3", "from_street": "بداية منطقة 102010", "to_street": "نهاية منطقة 102010", "municipality": "بلدية الجنوب", "district": "الأثير", "sub_district": "الأثير 1", "length_m": "4595.560957", "width_m": "18.5", "color": "#22d3ee"}}, {"type": "Feature", "geometry": {"type": "LineString", "coordinates": [[39.41446789299935, 21.39109871278572], [39.41442026108816, 21.39112880518205], [39.41408551394812, 21.39135912236037], [39.41384402903206, 21.39153327095196], [39.41348491248586, 21.39181241469172], [39.41326640188564, 21.39198793968592], [39.41305558893664, 21.39217778859344], [39.41271036182452, 21.39249562344922], [39.41250874441053, 21.39268831768005], [39.41222011231076, 21.3929816285232], [39.41187962104946, 21.39335108448958], [39.41143076415139, 21.39385419740394]]}, "properties": {"layer": "stormwater", "name": "طريق جدة_مكة", "segment_code": "1021201652", "from_street": "بداية منطقة 102120", "to_street": "نهاية منطقة 102120", "municipality": "بلدية الجنوب", "district": "العسيلة", "sub_district": "العسيلة 1", "length_m": "1759.626356", "width_m": "18.5", "color": "#22d3ee"}}, {"type": "Feature", "geometry": {"type": "LineString", "coordinates": [[39.41828857815774, 21.38941303594663], [39.41828545181764, 21.38941380630127], [39.41787686668629, 21.38952526737923], [39.41744231892022, 21.38966260975284], [39.41696650175592, 21.38982873990403], [39.41649839812554, 21.39001492997486], [39.41618484169563, 21.39015483637311], [39.41585144406957, 21.39031917609505], [39.4155241563124, 21.39047776186148], [39.41521834790552, 21.39065063788036], [39.41479633713878, 21.39089121311523], [39.41446789299935, 21.39109871278572]]}, "properties": {"layer": "stormwater", "name": "طريق جدة_مكة", "segment_code": "1021201652L1", "from_street": "بداية منطقة 102120", "to_street": "نهاية منطقة 102120", "municipality": "بلدية الجنوب", "district": "العسيلة", "sub_district": "العسيلة 1", "length_m": "1759.626356", "width_m": "18.5", "color": "#22d3ee"}}, {"type": "Feature", "geometry": {"type": "LineString", "coordinates": [[39.42248677280069, 21.3889266780759], [39.42213570352712, 21.38892940237227], [39.42149712595519, 21.38894391655873], [39.42081882392234, 21.38899151766674], [39.42051872035155, 21.38901378544649], [39.41998137654259, 21.38908397877948], [39.41951293980546, 21.38915112944891], [39.41910119542821, 21.38922817783472], [39.41862060818345, 21.3893312147047], [39.41828857815774, 21.38941303594663]]}, "properties": {"layer": "stormwater", "name": "طريق جدة_مكة", "segment_code": "1021201652L2", "from_street": "بداية منطقة 102120", "to_street": "نهاية منطقة 102120", "municipality": "بلدية الجنوب", "district": "العسيلة", "sub_district": "العسيلة 1", "length_m": "1759.626356", "width_m": "18.5", "color": "#22d3ee"}}, {"type": "Feature", "geometry": {"type": "LineString", "coordinates": [[39.42672990330455, 21.38886470778725], [39.42583098395202, 21.38888133532369], [39.42506373883324, 21.38888758468505], [39.42415407865606, 21.38889705843329], [39.423504767601, 21.38890730490767], [39.42295654944968, 21.3889230312561], [39.42248677280069, 21.3889266780759]]}, "properties": {"layer": "stormwater", "name": "طريق جدة_مكة", "segment_code": "1021201652L3", "from_street": "بداية منطقة 102120", "to_street": "نهاية منطقة 102120", "municipality": "بلدية الجنوب", "district": "العسيلة", "sub_district": "العسيلة 1", "length_m": "1759.626356", "width_m": "18.5", "color": "#22d3ee"}}, {"type": "Feature", "geometry": {"type": "LineString", "coordinates": [[39.35646518202277, 21.4162053571847], [39.35711304404704, 21.41598530006507], [39.35828144281218, 21.41544518119114], [39.3592013524071, 21.41491762267142], [39.35980880464452, 21.41452313027419], [39.36047728747078, 21.41408736954412]]}, "properties": {"layer": "stormwater", "name": "طريق جدة_مكة", "segment_code": "1006011652", "from_street": "بداية منطقة 100601", "to_street": "نهاية منطقة 100601", "municipality": "بلدية الجنوب", "district": "العليا", "sub_district": "العليا 1", "length_m": "1428.666063", "width_m": "18.5", "color": "#22d3ee"}}, {"type": "Feature", "geometry": {"type": "LineString", "coordinates": [[39.35192897339366, 21.41689940853002], [39.3526849055198, 21.41690543034645], [39.35335318863073, 21.41685186476687], [39.35402143350984, 21.41678224850658], [39.35509645910331, 21.41660344113119], [39.35610269483946, 21.41632847996937], [39.35646518202277, 21.4162053571847]]}, "properties": {"layer": "stormwater", "name": "طريق جدة_مكة", "segment_code": "1006011652R1", "from_street": "بداية منطقة 100601", "to_street": "نهاية منطقة 100601", "municipality": "بلدية الجنوب", "district": "العليا", "sub_district": "العليا 1", "length_m": "1428.666063", "width_m": "18.5", "color": "#22d3ee"}}, {"type": "Feature", "geometry": {"type": "LineString", "coordinates": [[39.34735494126986, 21.41629901959648], [39.34826631154138, 21.41645327673191], [39.350658044612, 21.41682141770731], [39.3514894515863, 21.416895905667], [39.35192897339366, 21.41689940853002]]}, "properties": {"layer": "stormwater", "name": "طريق جدة_مكة", "segment_code": "1006011652R2", "from_street": "بداية منطقة 100601", "to_street": "نهاية منطقة 100601", "municipality": "بلدية الجنوب", "district": "العليا", "sub_district": "العليا 1", "length_m": "1428.666063", "width_m": "18.5", "color": "#22d3ee"}}, {"type": "Feature", "geometry": {"type": "LineString", "coordinates": [[39.36311338293183, 21.41123775361396], [39.36350802179312, 21.41077455801138], [39.36516109634762, 21.40874885337136], [39.36546212184876, 21.40838456440495], [39.36558354602795, 21.4082569926844]]}, "properties": {"layer": "stormwater", "name": "طريق جدة_مكة", "segment_code": "1006041652", "from_street": "بداية منطقة 100604", "to_street": "نهاية منطقة 100604", "municipality": "بلدية الجنوب", "district": "العليا", "sub_district": "العليا 1", "length_m": "830.618753", "width_m": "18.5", "color": "#22d3ee"}}, {"type": "Feature", "geometry": {"type": "LineString", "coordinates": [[39.36047728747078, 21.41408736954412], [39.36109394764614, 21.41349197502037], [39.36181624166083, 21.41276020972494], [39.36311338293183, 21.41123775361396]]}, "properties": {"layer": "stormwater", "name": "طريق جدة_مكة", "segment_code": "1006041652R1", "from_street": "بداية منطقة 100604", "to_street": "نهاية منطقة 100604", "municipality": "بلدية الجنوب", "district": "العليا", "sub_district": "العليا 1", "length_m": "830.618753", "width_m": "18.5", "color": "#22d3ee"}}, {"type": "Feature", "geometry": {"type": "LineString", "coordinates": [[39.36981875420882, 21.40324313022531], [39.37058218853312, 21.40251806716674], [39.37136894879315, 21.40190648289554], [39.3719505793683, 21.40149996849346], [39.37245581686035, 21.40123580323346]]}, "properties": {"layer": "stormwater", "name": "طريق جدة_مكة", "segment_code": "1006071652", "from_street": "بداية منطقة 100607", "to_street": "نهاية منطقة 100607", "municipality": "بلدية الجنوب", "district": "العليا", "sub_district": "العليا 1", "length_m": "1057.933789", "width_m": "18.5", "color": "#22d3ee"}}, {"type": "Feature", "geometry": {"type": "LineString", "coordinates": [[39.36767687303768, 21.40573107935863], [39.36862944819961, 21.40458059470068], [39.36907367588491, 21.40404600469824], [39.36967181237158, 21.40338268485602], [39.36981875420882, 21.40324313022531]]}, "properties": {"layer": "stormwater", "name": "طريق جدة_مكة", "segment_code": "1006071652R1", "from_street": "بداية منطقة 100607", "to_street": "نهاية منطقة 100607", "municipality": "بلدية الجنوب", "district": "العليا", "sub_district": "العليا 1", "length_m": "1057.933789", "width_m": "18.5", "color": "#22d3ee"}}, {"type": "Feature", "geometry": {"type": "LineString", "coordinates": [[39.36558354602795, 21.4082569926844], [39.36573640506777, 21.40807705275125], [39.36671583253163, 21.40689176600338], [39.36767687303768, 21.40573107935863]]}, "properties": {"layer": "stormwater", "name": "طريق جدة_مكة", "segment_code": "1006071652R2", "from_street": "بداية منطقة 100607", "to_street": "نهاية منطقة 100607", "municipality": "بلدية الجنوب", "district": "العليا", "sub_district": "العليا 1", "length_m": "1057.933789", "width_m": "18.5", "color": "#22d3ee"}}, {"type": "Feature", "geometry": {"type": "LineString", "coordinates": [[39.30728192478009, 21.42789208141204], [39.30892001764767, 21.42647207896514], [39.30941189293262, 21.42604588465022], [39.31064742289123, 21.42523263665748]]}, "properties": {"layer": "stormwater", "name": "طريق جدة_مكة", "segment_code": "1009011652", "from_street": "بداية منطقة 100901", "to_street": "نهاية منطقة 100901", "municipality": "بلدية الجنوب", "district": "الأمير فواز الشمالى", "sub_district": "الأمير فواز الشمالى 2", "length_m": "1371.771239", "width_m": "18.5", "color": "#22d3ee"}}, {"type": "Feature", "geometry": {"type": "LineString", "coordinates": [[39.3041021711575, 21.43075674877712], [39.30442476119102, 21.43046034742108], [39.30536997164229, 21.42959601824855], [39.30672151292173, 21.42837787124742], [39.30728192478009, 21.42789208141204]]}, "properties": {"layer": "stormwater", "name": "طريق جدة_مكة", "segment_code": "1009011652R1", "from_street": "بداية منطقة 100901", "to_street": "نهاية منطقة 100901", "municipality": "بلدية الجنوب", "district": "الأمير فواز الشمالى", "sub_district": "الأمير فواز الشمالى 2", "length_m": "1371.771239", "width_m": "18.5", "color": "#22d3ee"}}, {"type": "Feature", "geometry": {"type": "LineString", "coordinates": [[39.30094598429564, 21.43364447514962], [39.30122025810142, 21.43339237818297], [39.30216646790054, 21.4325226640387], [39.3032828047392, 21.43150958754608], [39.3041021711575, 21.43075674877712]]}, "properties": {"layer": "stormwater", "name": "طريق جدة_مكة", "segment_code": "1009011652R2", "from_street": "بداية منطقة 100901", "to_street": "نهاية منطقة 100901", "municipality": "بلدية الجنوب", "district": "الأمير فواز الشمالى", "sub_district": "الأمير فواز الشمالى 2", "length_m": "1371.771239", "width_m": "18.5", "color": "#22d3ee"}}, {"type": "Feature", "geometry": {"type": "LineString", "coordinates": [[39.2975022994366, 21.43629926696016], [39.29750242378636, 21.43629919897603], [39.29832838760341, 21.43576010352336], [39.2995793952641, 21.43486285022398], [39.30009235747904, 21.43443163456294], [39.30094598526067, 21.43364447514788]]}, "properties": {"layer": "stormwater", "name": "طريق جدة_مكة", "segment_code": "1009021652", "from_street": "بداية منطقة 100902", "to_street": "حمود بن ربيعان", "municipality": "بلدية الجنوب", "district": "الأمير فواز الشمالى", "sub_district": "الأمير فواز الشمالى 1", "length_m": "1852.998088", "width_m": "18.5", "color": "#22d3ee"}}, {"type": "Feature", "geometry": {"type": "LineString", "coordinates": [[39.29350796089619, 21.43815823921605], [39.29445007993286, 21.43782519323333], [39.29536636176994, 21.43743841520599], [39.29617116358498, 21.43702374202615], [39.2975022994366, 21.43629926696016]]}, "properties": {"layer": "stormwater", "name": "طريق جدة_مكة", "segment_code": "1009021652R1", "from_street": "بداية منطقة 100902", "to_street": "حمود بن ربيعان", "municipality": "بلدية الجنوب", "district": "الأمير فواز الشمالى", "sub_district": "الأمير فواز الشمالى 1", "length_m": "1852.998088", "width_m": "18.5", "color": "#22d3ee"}}, {"type": "Feature", "geometry": {"type": "LineString", "coordinates": [[39.28924709214136, 21.43942343691415], [39.29166208930127, 21.43870873035042], [39.29322962409698, 21.43825663297326], [39.29350796089619, 21.43815823921605]]}, "properties": {"layer": "stormwater", "name": "طريق جدة_مكة", "segment_code": "1009021652R2", "from_street": "بداية منطقة 100902", "to_street": "حمود بن ربيعان", "municipality": "بلدية الجنوب", "district": "الأمير فواز الشمالى", "sub_district": "الأمير فواز الشمالى 1", "length_m": "1852.998088", "width_m": "18.5", "color": "#22d3ee"}}, {"type": "Feature", "geometry": {"type": "LineString", "coordinates": [[39.28498439480695, 21.4406848597401], [39.28924709214136, 21.43942343691415]]}, "properties": {"layer": "stormwater", "name": "طريق جدة_مكة", "segment_code": "1009021652R3", "from_street": "بداية منطقة 100902", "to_street": "حمود بن ربيعان", "municipality": "بلدية الجنوب", "district": "الأمير فواز الشمالى", "sub_district": "الأمير فواز الشمالى 1", "length_m": "1852.998088", "width_m": "18.5", "color": "#22d3ee"}}, {"type": "Feature", "geometry": {"type": "LineString", "coordinates": [[39.29888632970631, 21.43509314184857], [39.29955021613887, 21.43453791556154], [39.29966789506344, 21.43441314812774], [39.30061131149144, 21.43355377844399], [39.3007253867631, 21.43344851175876]]}, "properties": {"layer": "stormwater", "name": "طريق جدة_مكة", "segment_code": "1010101652L1", "from_street": "بداية منطقة 101010", "to_street": "نهاية منطقة 101010", "municipality": "بلدية الجنوب", "district": "الأمير فواز الجنوبي", "sub_district": "الأمير فواز الجنوبي 1", "length_m": "526.339963", "width_m": "14.8", "color": "#22d3ee"}}, {"type": "Feature", "geometry": {"type": "LineString", "coordinates": [[39.2967955863876, 21.43644618756281], [39.29718635671606, 21.43622487016248], [39.29791708251596, 21.43577162641204], [39.29872986845234, 21.43522399349048], [39.29888632970631, 21.43509314184857]]}, "properties": {"layer": "stormwater", "name": "طريق جدة_مكة", "segment_code": "1010101652", "from_street": "بداية منطقة 101010", "to_street": "نهاية منطقة 101010", "municipality": "بلدية الجنوب", "district": "الأمير فواز الجنوبي", "sub_district": "الأمير فواز الجنوبي 1", "length_m": "526.339963", "width_m": "14.8", "color": "#22d3ee"}}, {"type": "Feature", "geometry": {"type": "LineString", "coordinates": [[39.37245581686035, 21.40123580323346], [39.37323261569934, 21.40084246030274], [39.37440813488325, 21.40034977953348], [39.37511461002354, 21.40011153747175], [39.37613457339478, 21.39983200485241]]}, "properties": {"layer": "stormwater", "name": "طريق جدة_مكة", "segment_code": "1011021652", "from_street": "بداية منطقة 101102", "to_street": "نهاية منطقة 101102", "municipality": "بلدية الجنوب", "district": "الأمير فواز الجنوبي", "sub_district": "الأمير فواز الجنوبي1", "length_m": "412.328241", "width_m": "18.5", "color": "#22d3ee"}}, {"type": "Feature", "geometry": {"type": "LineString", "coordinates": [[39.41169954054457, 21.39404966538613], [39.4124167589965, 21.3932626756104], [39.41275676383929, 21.39290230361272], [39.41338401058918, 21.39230025737138], [39.41399925773585, 21.3917900355007], [39.41460192614609, 21.39133753493894]]}, "properties": {"layer": "stormwater", "name": "طريق جدة_مكة", "segment_code": "1011031652", "from_street": "بداية منطقة 101103", "to_street": "نهاية منطقة 101103", "municipality": "بلدية الجنوب", "district": "المرسلات", "sub_district": "المرسلات 1", "length_m": "4683.554547", "width_m": "18.5", "color": "#22d3ee"}}, {"type": "Feature", "geometry": {"type": "LineString", "coordinates": [[39.40909068081771, 21.39702472025293], [39.40986612765588, 21.39613756490443], [39.41072104454667, 21.39515439915378], [39.41159227508358, 21.39416736541402], [39.41169954054457, 21.39404966538613]]}, "properties": {"layer": "stormwater", "name": "طريق جدة_مكة", "segment_code": "1011031652R1", "from_street": "بداية منطقة 101103", "to_street": "نهاية منطقة 101103", "municipality": "بلدية الجنوب", "district": "المرسلات", "sub_district": "المرسلات 1", "length_m": "4683.554547", "width_m": "18.5", "color": "#22d3ee"}}, {"type": "Feature", "geometry": {"type": "LineString", "coordinates": [[39.40646922741834, 21.39999014491458], [39.4070894888921, 21.39928835305789], [39.40805440629358, 21.39819401304017], [39.40900507854444, 21.39712265220769], [39.40909068081771, 21.39702472025293]]}, "properties": {"layer": "stormwater", "name": "طريق جدة_مكة", "segment_code": "1011031652R2", "from_street": "بداية منطقة 101103", "to_street": "نهاية منطقة 101103", "municipality": "بلدية الجنوب", "district": "المرسلات", "sub_district": "المرسلات 1", "length_m": "4683.554547", "width_m": "18.5", "color": "#22d3ee"}}, {"type": "Feature", "geometry": {"type": "LineString", "coordinates": [[39.40361646879501, 21.40274190463829], [39.40383938828032, 21.40259705545523], [39.40446499122552, 21.40211170406596], [39.40486831016724, 21.40173972063526], [39.40534484247456, 21.40125855044639], [39.4061917297058, 21.40030411418483], [39.40646922741834, 21.39999014491458]]}, "properties": {"layer": "stormwater", "name": "طريق جدة_مكة", "segment_code": "1011031652R3", "from_street": "بداية منطقة 101103", "to_street": "نهاية منطقة 101103", "municipality": "بلدية الجنوب", "district": "المرسلات", "sub_district": "المرسلات 1", "length_m": "4683.554547", "width_m": "18.5", "color": "#22d3ee"}}, {"type": "Feature", "geometry": {"type": "LineString", "coordinates": [[39.39990619717248, 21.40433120389956], [39.40046198533614, 21.40420776753665], [39.40132300120022, 21.40392266929384], [39.40223483205874, 21.40355138677851], [39.40301993615884, 21.40314024232124], [39.40349080402461, 21.40282356053913], [39.40361646879501, 21.40274190463829]]}, "properties": {"layer": "stormwater", "name": "طريق جدة_مكة", "segment_code": "1011031652R4", "from_street": "بداية منطقة 101103", "to_street": "نهاية منطقة 101103", "municipality": "بلدية الجنوب", "district": "المرسلات", "sub_district": "المرسلات 1", "length_m": "4683.554547", "width_m": "18.5", "color": "#22d3ee"}}, {"type": "Feature", "geometry": {"type": "LineString", "coordinates": [[39.30368518488554, 21.4308352198589], [39.30315163874563, 21.43132544405377], [39.30203530237135, 21.43233851878492], [39.3007253867631, 21.43344851175876]]}, "properties": {"layer": "stormwater", "name": "طريق جدة_مكة", "segment_code": "1010011652", "from_street": "بداية منطقة 101001", "to_street": "نهاية منطقة 101001", "municipality": "بلدية الجنوب", "district": "الأمير فواز الجنوبى", "sub_district": "الأمير فواز الجنوبى 2", "length_m": "1246.919877", "width_m": "18.5", "color": "#22d3ee"}}, {"type": "Feature", "geometry": {"type": "LineString", "coordinates": [[39.30660446537928, 21.42818149000613], [39.30659034550111, 21.42819372949394], [39.30613746184383, 21.42860191777567], [39.30523880479326, 21.42941187545615], [39.30466553134397, 21.42993609640253], [39.30429359473243, 21.43027620480598], [39.30368518488554, 21.4308352198589]]}, "properties": {"layer": "stormwater", "name": "طريق جدة_مكة", "segment_code": "1010011652L1", "from_street": "بداية منطقة 101001", "to_street": "نهاية منطقة 101001", "municipality": "بلدية الجنوب", "district": "الأمير فواز الجنوبى", "sub_district": "الأمير فواز الجنوبى 2", "length_m": "1246.919877", "width_m": "18.5", "color": "#22d3ee"}}, {"type": "Feature", "geometry": {"type": "LineString", "coordinates": [[39.30958990403781, 21.42559534594924], [39.3089188582457, 21.42612321436636], [39.30832301340283, 21.42663731136286], [39.3072750523506, 21.42760019448288], [39.30660446537928, 21.42818149000613]]}, "properties": {"layer": "stormwater", "name": "طريق جدة_مكة", "segment_code": "1010011652L2", "from_street": "بداية منطقة 101001", "to_street": "نهاية منطقة 101001", "municipality": "بلدية الجنوب", "district": "الأمير فواز الجنوبى", "sub_district": "الأمير فواز الجنوبى 2", "length_m": "1246.919877", "width_m": "18.5", "color": "#22d3ee"}}, {"type": "Feature", "geometry": {"type": "LineString", "coordinates": [[39.2889742923491, 21.43926408710895], [39.28803421230413, 21.43953941165191], [39.28798708648588, 21.43955321160642], [39.28667809902183, 21.43993656830679], [39.28495338602765, 21.44041210776538]]}, "properties": {"layer": "stormwater", "name": "طريق جدة_مكة", "segment_code": "1010081652", "from_street": "بداية منطقة 101008", "to_street": "نهاية منطقة 101008", "municipality": "بلدية الجنوب", "district": "الأمير فواز الجنوبى", "sub_district": "الأمير فواز الجنوبى 1", "length_m": "1296.232544", "width_m": "11.1", "color": "#22d3ee"}}, {"type": "Feature", "geometry": {"type": "LineString", "coordinates": [[39.29298832371914, 21.43809484023924], [39.2915563179593, 21.43850784850739], [39.2889742923491, 21.43926408710895]]}, "properties": {"layer": "stormwater", "name": "طريق جدة_مكة", "segment_code": "1010081652L1", "from_street": "بداية منطقة 101008", "to_street": "نهاية منطقة 101008", "municipality": "بلدية الجنوب", "district": "الأمير فواز الجنوبى", "sub_district": "الأمير فواز الجنوبى 1", "length_m": "1296.232544", "width_m": "11.1", "color": "#22d3ee"}}, {"type": "Feature", "geometry": {"type": "LineString", "coordinates": [[39.2967955863876, 21.43644618756281], [39.29606538735315, 21.4368228630481], [39.29526058632477, 21.43723753481668], [39.29434430545032, 21.43762431316676], [39.29312385095619, 21.43805575213046], [39.29298832371914, 21.43809484023924]]}, "properties": {"layer": "stormwater", "name": "طريق جدة_مكة", "segment_code": "1010081652L2", "from_street": "بداية منطقة 101008", "to_street": "نهاية منطقة 101008", "municipality": "بلدية الجنوب", "district": "الأمير فواز الجنوبى", "sub_district": "الأمير فواز الجنوبى 1", "length_m": "1296.232544", "width_m": "11.1", "color": "#22d3ee"}}, {"type": "Feature", "geometry": {"type": "LineString", "coordinates": [[39.343218190782, 21.41562440170506], [39.34337584092891, 21.41564803165372], [39.34392796340764, 21.41574215267631], [39.34508523957912, 21.41593129287016], [39.34579001820175, 21.41605447899517], [39.34668314916246, 21.41620058037143], [39.34735494126986, 21.41629901959648]]}, "properties": {"layer": "stormwater", "name": "طريق جدة_مكة", "segment_code": "1040011652", "from_street": "بداية منطقة 104001", "to_street": "نهاية منطقة 104001", "municipality": "بلدية الجنوب", "district": "الفضل", "sub_district": "الفضل 1", "length_m": "4071.1794", "width_m": "18.5", "color": "#22d3ee"}}, {"type": "Feature", "geometry": {"type": "LineString", "coordinates": [[39.33904487484932, 21.41552035442056], [39.33905663130856, 21.41551800048501], [39.33951532260642, 21.41545525823772], [39.33990696449371, 21.41541190452352], [39.34048043931098, 21.41538135370635], [39.34091438068356, 21.41537945863591], [39.34104858890127, 21.41538830466513], [39.34159946485349, 21.415412516108], [39.3417488353864, 21.41542639844668], [39.3421222736287, 21.41546616965757], [39.34242212251355, 21.41550507668444], [39.343218190782, 21.41562440170506]]}, "properties": {"layer": "stormwater", "name": "طريق جدة_مكة", "segment_code": "1040011652R1", "from_street": "بداية منطقة 104001", "to_street": "نهاية منطقة 104001", "municipality": "بلدية الجنوب", "district": "الفضل", "sub_district": "الفضل 1", "length_m": "4071.1794", "width_m": "18.5", "color": "#22d3ee"}}, {"type": "Feature", "geometry": {"type": "LineString", "coordinates": [[39.33521145740207, 21.41704819043747], [39.33584846518024, 21.41665837719983], [39.33600301952004, 21.41657294779539], [39.33646780078415, 21.41633185531414], [39.33702240621189, 21.41609362213398], [39.33764520616967, 21.41586436885473], [39.33815997361562, 21.41571538490682], [39.33860665951756, 21.41560808301167], [39.33904487484932, 21.41552035442056]]}, "properties": {"layer": "stormwater", "name": "طريق جدة_مكة", "segment_code": "1040011652R2", "from_street": "بداية منطقة 104001", "to_street": "نهاية منطقة 104001", "municipality": "بلدية الجنوب", "district": "الفضل", "sub_district": "الفضل 1", "length_m": "4071.1794", "width_m": "18.5", "color": "#22d3ee"}}, {"type": "Feature", "geometry": {"type": "LineString", "coordinates": [[39.33197154049385, 21.41954753278207], [39.33278710633774, 21.41889547621067], [39.33371520095688, 21.41814737270122], [39.33469903734427, 21.41740380221395], [39.3351590029444, 21.41708028951509], [39.33521145740207, 21.41704819043747]]}, "properties": {"layer": "stormwater", "name": "طريق جدة_مكة", "segment_code": "1040011652R3", "from_street": "بداية منطقة 104001", "to_street": "نهاية منطقة 104001", "municipality": "بلدية الجنوب", "district": "الفضل", "sub_district": "الفضل 1", "length_m": "4071.1794", "width_m": "18.5", "color": "#22d3ee"}}, {"type": "Feature", "geometry": {"type": "LineString", "coordinates": [[39.32851990577323, 21.42176791752362], [39.32889825740583, 21.42157523559338], [39.32973279728343, 21.42112824850804], [39.33045165311564, 21.42068549708323], [39.33089230899553, 21.4203837173993], [39.33164513702071, 21.41980849452088], [39.33197154049385, 21.41954753278207]]}, "properties": {"layer": "stormwater", "name": "طريق جدة_مكة", "segment_code": "1040011652R4", "from_street": "بداية منطقة 104001", "to_street": "نهاية منطقة 104001", "municipality": "بلدية الجنوب", "district": "الفضل", "sub_district": "الفضل 1", "length_m": "4071.1794", "width_m": "18.5", "color": "#22d3ee"}}, {"type": "Feature", "geometry": {"type": "LineString", "coordinates": [[39.31493859345111, 21.42355905857795], [39.31570062657767, 21.42342213398918], [39.31635609249505, 21.42336472721709], [39.31730290377497, 21.42329473067167], [39.31890535994749, 21.4232515666667], [39.31960015608227, 21.42326813300018]]}, "properties": {"layer": "stormwater", "name": "طريق جدة_مكة", "segment_code": "1040031652", "from_street": "بداية منطقة 104003", "to_street": "نهاية منطقة 104003", "municipality": "بلدية الجنوب", "district": "الفضل", "sub_district": "الفضل 1", "length_m": "4071.1794", "width_m": "18.5", "color": "#22d3ee"}}, {"type": "Feature", "geometry": {"type": "LineString", "coordinates": [[39.31064742289123, 21.42523263665748], [39.31074198281264, 21.42517883527011], [39.31129015720752, 21.42482661068571], [39.312193389657, 21.42440766741806], [39.31299397475695, 21.42408119107687], [39.31384180271701, 21.42380677933096], [39.31477544527008, 21.42358837328375], [39.31493859345111, 21.42355905857795]]}, "properties": {"layer": "stormwater", "name": "طريق جدة_مكة", "segment_code": "1040031652R1", "from_street": "بداية منطقة 104003", "to_street": "نهاية منطقة 104003", "municipality": "بلدية الجنوب", "district": "الفضل", "sub_district": "الفضل 1", "length_m": "4071.1794", "width_m": "18.5", "color": "#22d3ee"}}, {"type": "Feature", "geometry": {"type": "LineString", "coordinates": [[39.32415955396338, 21.42299815027573], [39.3253188648219, 21.4228099374419], [39.32659931457226, 21.42248246301323], [39.32720730718182, 21.4222766580995], [39.32816202052583, 21.42191369803373], [39.32851990577323, 21.42176791752362]]}, "properties": {"layer": "stormwater", "name": "طريق جدة_مكة", "segment_code": "1040021652", "from_street": "بداية منطقة 104002", "to_street": "نهاية منطقة 104002", "municipality": "بلدية الجنوب", "district": "الفضل", "sub_district": "الفضل 1", "length_m": "4071.1794", "width_m": "18.5", "color": "#22d3ee"}}, {"type": "Feature", "geometry": {"type": "LineString", "coordinates": [[39.31960015608227, 21.42326813300018], [39.32089771320761, 21.42319560440466], [39.32309568400776, 21.42311514984376], [39.32347082518054, 21.42307965799638], [39.32391821089664, 21.42303733063962], [39.32415955396338, 21.42299815027573]]}, "properties": {"layer": "stormwater", "name": "طريق جدة_مكة", "segment_code": "1040021652R1", "from_street": "بداية منطقة 104002", "to_street": "نهاية منطقة 104002", "municipality": "بلدية الجنوب", "district": "الفضل", "sub_district": "الفضل 1", "length_m": "4071.1794", "width_m": "18.5", "color": "#22d3ee"}}, {"type": "Feature", "geometry": {"type": "LineString", "coordinates": [[39.39582859366836, 21.40437944454686], [39.39634773628002, 21.40447380979756], [39.39716482731613, 21.40455602221991], [39.39750793095101, 21.40456285900728], [39.39845338243921, 21.40453575278606], [39.3994435595076, 21.40443395030419], [39.39990619717248, 21.40433120389956]]}, "properties": {"layer": "stormwater", "name": "طريق جدة_مكة", "segment_code": "1011101652", "from_street": "بداية منطقة 101110", "to_street": "نهاية منطقة 101110", "municipality": "بلدية الجنوب", "district": "المرسلات", "sub_district": "المرسلات 1", "length_m": "4683.554547", "width_m": "18.5", "color": "#22d3ee"}}, {"type": "Feature", "geometry": {"type": "LineString", "coordinates": [[39.39193234091779, 21.40316561106651], [39.39240738255101, 21.40333179937942], [39.393879118839, 21.40384852727021], [39.39480091960112, 21.4041408730249], [39.39559993648342, 21.40433788090658], [39.39582859366836, 21.40437944454686]]}, "properties": {"layer": "stormwater", "name": "طريق جدة_مكة", "segment_code": "1011101652R1", "from_street": "بداية منطقة 101110", "to_street": "نهاية منطقة 101110", "municipality": "بلدية الجنوب", "district": "المرسلات", "sub_district": "المرسلات 1", "length_m": "4683.554547", "width_m": "18.5", "color": "#22d3ee"}}, {"type": "Feature", "geometry": {"type": "LineString", "coordinates": [[39.38805808158757, 21.40187817190092], [39.38823566643037, 21.40193970338563], [39.38952334919162, 21.40236892526449], [39.39096836644399, 21.40282836845174], [39.39193234091779, 21.40316561106651]]}, "properties": {"layer": "stormwater", "name": "طريق جدة_مكة", "segment_code": "1011101652R2", "from_street": "بداية منطقة 101110", "to_street": "نهاية منطقة 101110", "municipality": "بلدية الجنوب", "district": "المرسلات", "sub_district": "المرسلات 1", "length_m": "4683.554547", "width_m": "18.5", "color": "#22d3ee"}}, {"type": "Feature", "geometry": {"type": "LineString", "coordinates": [[39.3841960003783, 21.40055843673238], [39.38522283341173, 21.40090055539458], [39.38683756996308, 21.40145526632861], [39.38805808158757, 21.40187817190092]]}, "properties": {"layer": "stormwater", "name": "طريق جدة_مكة", "segment_code": "1011101652R3", "from_street": "بداية منطقة 101110", "to_street": "نهاية منطقة 101110", "municipality": "بلدية الجنوب", "district": "المرسلات", "sub_district": "المرسلات 1", "length_m": "4683.554547", "width_m": "18.5", "color": "#22d3ee"}}, {"type": "Feature", "geometry": {"type": "LineString", "coordinates": [[39.38022251472413, 21.39960913960199], [39.38074943714272, 21.39966960830419], [39.38181796427677, 21.39986415849589], [39.38253932227342, 21.40005375697844], [39.3835468358501, 21.40034214431658], [39.3841960003783, 21.40055843673238]]}, "properties": {"layer": "stormwater", "name": "طريق جدة_مكة", "segment_code": "1011101652R4", "from_street": "بداية منطقة 101110", "to_street": "نهاية منطقة 101110", "municipality": "بلدية الجنوب", "district": "المرسلات", "sub_district": "المرسلات 1", "length_m": "4683.554547", "width_m": "18.5", "color": "#22d3ee"}}, {"type": "Feature", "geometry": {"type": "LineString", "coordinates": [[39.37613457339478, 21.39983200485241], [39.37663886595111, 21.3997439138403], [39.37767385034979, 21.39960197852926], [39.37852732241553, 21.39955224398674], [39.37937686784786, 21.39956371036326], [39.38007942736964, 21.39959271839879], [39.38022251472413, 21.39960913960199]]}, "properties": {"layer": "stormwater", "name": "طريق جدة_مكة", "segment_code": "1011101652R5", "from_street": "بداية منطقة 101110", "to_street": "نهاية منطقة 101110", "municipality": "بلدية الجنوب", "district": "المرسلات", "sub_district": "المرسلات 1", "length_m": "4683.554547", "width_m": "18.5", "color": "#22d3ee"}}, {"type": "Feature", "geometry": {"type": "LineString", "coordinates": [[39.38641186166373, 21.40097536191258], [39.38613416010209, 21.40087765857592], [39.38590420356075, 21.40079451964962], [39.38532550774752, 21.40059624058973], [39.3849716525956, 21.40047633133238], [39.38454115267692, 21.40033149678633], [39.38418602142087, 21.40021158877743], [39.38359329801133, 21.40001572739019], [39.3831232449348, 21.39987456476], [39.38270557986981, 21.39975599179313], [39.38239009830779, 21.39966706647036], [39.38211695776818, 21.39960438220444]]}, "properties": {"layer": "stormwater", "name": "طريق جدة_مكة", "segment_code": "1020121652", "from_street": "بداية منطقة 102012", "to_street": "نهاية منطقة 102012", "municipality": "بلدية الجنوب", "district": "الأثير", "sub_district": "الأثير 1", "length_m": "4595.560957", "width_m": "18.5", "color": "#22d3ee"}}, {"type": "Feature", "geometry": {"type": "LineString", "coordinates": [[39.39068087233645, 21.40242158258295], [39.39018250963102, 21.40226077154895], [39.38891526107582, 21.40183700608208], [39.38818711098163, 21.40159485879772], [39.38770549800052, 21.40142983184924], [39.38733884663375, 21.40129919918506], [39.38700158987622, 21.40118284193684], [39.38641186166373, 21.40097536191258]]}, "properties": {"layer": "stormwater", "name": "طريق جدة_مكة", "segment_code": "1020121652L1", "from_street": "بداية منطقة 102012", "to_street": "نهاية منطقة 102012", "municipality": "بلدية الجنوب", "district": "الأثير", "sub_district": "الأثير 1", "length_m": "4595.560957", "width_m": "18.5", "color": "#22d3ee"}}, {"type": "Feature", "geometry": {"type": "LineString", "coordinates": [[39.39495691259216, 21.40384640179967], [39.39486958239533, 21.40382037693234], [39.3941989794579, 21.40362712668162], [39.39346182701087, 21.40336590014477], [39.39264929908193, 21.40307735589211], [39.39191853951183, 21.40281849728209], [39.39159278799212, 21.40271168429356], [39.39114953119946, 21.4025740687511], [39.39088126618619, 21.40248624475369], [39.39068087233645, 21.40242158258295]]}, "properties": {"layer": "stormwater", "name": "طريق جدة_مكة", "segment_code": "1020121652L2", "from_street": "بداية منطقة 102012", "to_street": "نهاية منطقة 102012", "municipality": "بلدية الجنوب", "district": "الأثير", "sub_district": "الأثير 1", "length_m": "4595.560957", "width_m": "18.5", "color": "#22d3ee"}}, {"type": "Feature", "geometry": {"type": "LineString", "coordinates": [[39.39944551757773, 21.40411240160611], [39.39922921452867, 21.4041495070065], [39.39895106892286, 21.40418602746849], [39.3987073448243, 21.4042081215575], [39.39850317166554, 21.40422414549789], [39.39821094296279, 21.40424515972308], [39.39789698129568, 21.40425307630652], [39.39740045076811, 21.40424230157588], [39.39710047708887, 21.4042310599092], [39.39671362433997, 21.40418775099658], [39.39635994399889, 21.40413958141124], [39.39592834025261, 21.40406649483097], [39.39556820757019, 21.40399204317319], [39.39507651708013, 21.40388204337806], [39.39495691259216, 21.40384640179967]]}, "properties": {"layer": "stormwater", "name": "طريق جدة_مكة", "segment_code": "1020121652L3", "from_street": "بداية منطقة 102012", "to_street": "نهاية منطقة 102012", "municipality": "بلدية الجنوب", "district": "الأثير", "sub_district": "الأثير 1", "length_m": "4595.560957", "width_m": "18.5", "color": "#22d3ee"}}, {"type": "Feature", "geometry": {"type": "LineString", "coordinates": [[39.37736544950063, 21.39929833806594], [39.37710015793797, 21.39932285707891], [39.37681054412723, 21.39936534327733], [39.37627222374729, 21.39947651627034], [39.37555920987406, 21.3996514292655], [39.37507836985424, 21.39978159424228], [39.37458102002388, 21.39994406712936], [39.37418061640339, 21.40008600234134], [39.37368079069739, 21.40027955515982], [39.37323967604745, 21.40047417115877], [39.37283046614499, 21.40066751972556]]}, "properties": {"layer": "stormwater", "name": "طريق جدة_مكة", "segment_code": "1020111652", "from_street": "بداية منطقة 102011", "to_street": "نهاية منطقة 102011", "municipality": "بلدية الجنوب", "district": "الأثير", "sub_district": "الأثير 1", "length_m": "4595.560957", "width_m": "18.5", "color": "#22d3ee"}}, {"type": "Feature", "geometry": {"type": "LineString", "coordinates": [[39.38211695776818, 21.39960438220444], [39.38184861715835, 21.39954279787335], [39.38068152097815, 21.39933269370211], [39.38026785537473, 21.39927865029924], [39.37968701603754, 21.39923335097911], [39.37917772054441, 21.39921537889799], [39.3785906321292, 21.39922148683835], [39.37774964773146, 21.39926282706754], [39.37736544950063, 21.39929833806594]]}, "properties": {"layer": "stormwater", "name": "طريق جدة_مكة", "segment_code": "1020111652L1", "from_street": "بداية منطقة 102011", "to_street": "نهاية منطقة 102011", "municipality": "بلدية الجنوب", "district": "الأثير", "sub_district": "الأثير 1", "length_m": "4595.560957", "width_m": "18.5", "color": "#22d3ee"}}]}