{"type": "FeatureCollection", "features": [{"type": "Feature", "geometry": {"type": "Point", "coordinates": [39.426914, 21.389055]}, "properties": {"layer": "bridges", "name": "جسر بحرة -1", "color": "#c084fc", "طول الجسر (م.ط)": "119", "عرض الجسور (م.ط)": "12.5", "الركائز الطرفية  (عدد)": "2", "الركائز الوسطية (عدد)": "6", "البحور (عدد)": "4", "فواصل التمدد (عدد )": "2", "الدربزين (م.ط)": "113"}}, {"type": "Feature", "geometry": {"type": "Point", "coordinates": [39.426846, 21.388623]}, "properties": {"layer": "bridges", "name": "جسر بحرة -2", "color": "#c084fc", "طول الجسر (م.ط)": "119", "عرض الجسور (م.ط)": "12.5", "الركائز الطرفية  (عدد)": "2", "الركائز الوسطية (عدد)": "6", "البحور (عدد)": "4", "فواصل التمدد (عدد )": "2", "الدربزين (م.ط)": "113"}}, {"type": "Feature", "geometry": {"type": "Point", "coordinates": [39.478397, 21.378035]}, "properties": {"layer": "bridges", "name": "جسر  الميت -1", "color": "#c084fc", "طول الجسر (م.ط)": "110", "عرض الجسور (م.ط)": "12.5", "الركائز الطرفية  (عدد)": "2", "الركائز الوسطية (عدد)": "6", "البحور (عدد)": "4", "فواصل التمدد (عدد )": "2", "الدربزين (م.ط)": "111"}}, {"type": "Feature", "geometry": {"type": "Point", "coordinates": [39.478257, 21.378023]}, "properties": {"layer": "bridges", "name": "جسر  الميت -2", "color": "#c084fc", "طول الجسر (م.ط)": "110", "عرض الجسور (م.ط)": "12.5", "الركائز الطرفية  (عدد)": "2", "الركائز الوسطية (عدد)": "6", "البحور (عدد)": "4", "فواصل التمدد (عدد )": "2", "الدربزين (م.ط)": "111"}}, {"type": "Feature", "geometry": {"type": "Point", "coordinates": [39.556796, 21.351442]}, "properties": {"layer": "bridges", "name": "جسر الأيواء -1", "color": "#c084fc", "طول الجسر (م.ط)": "104", "عرض الجسور (م.ط)": "13", "الركائز الطرفية  (عدد)": "2", "الركائز الوسطية (عدد)": "9", "البحور (عدد)": "4", "فواصل التمدد (عدد )": "2", "الدربزين (م.ط)": "114"}}, {"type": "Feature", "geometry": {"type": "Point", "coordinates": [39.556489, 21.351579]}, "properties": {"layer": "bridges", "name": "جسر الأيواء -2", "color": "#c084fc", "طول الجسر (م.ط)": "104", "عرض الجسور (م.ط)": "13", "الركائز الطرفية  (عدد)": "2", "الركائز الوسطية (عدد)": "9", "البحور (عدد)": "4", "فواصل التمدد (عدد )": "2", "الدربزين (م.ط)": "114"}}, {"type": "Feature", "geometry": {"type": "Point", "coordinates": [39.448369, 21.383505]}, "properties": {"layer": "bridges", "name": "جسر الوادي -1", "color": "#c084fc", "طول الجسر (م.ط)": "223.3", "عرض الجسور (م.ط)": "23", "الركائز الطرفية  (عدد)": "2", "الركائز الوسطية (عدد)": "32", "البحور (عدد)": "9", "فواصل التمدد (عدد )": "10", "الدربزين (م.ط)": "334.6"}}, {"type": "Feature", "geometry": {"type": "Point", "coordinates": [39.448141, 21.383268]}, "properties": {"layer": "bridges", "name": "جسر الوادي -2", "color": "#c084fc", "طول الجسر (م.ط)": "223.3", "عرض الجسور (م.ط)": "23", "الركائز الطرفية  (عدد)": "2", "الركائز الوسطية (عدد)": "32", "البحور (عدد)": "9", "فواصل التمدد (عدد )": "10", "الدربزين (م.ط)": "334.6"}}, {"type": "Feature", "geometry": {"type": "Point", "coordinates": [39.62194, 21.35205]}, "properties": {"layer": "bridges", "name": "جسر الشميسي", "color": "#c084fc", "طول الجسر (م.ط)": "138.7", "عرض الجسور (م.ط)": "17", "الركائز الطرفية  (عدد)": "2", "الركائز الوسطية (عدد)": "6", "البحور (عدد)": "4", "فواصل التمدد (عدد )": "2", "الدربزين (م.ط)": "131.8"}}, {"type": "Feature", "geometry": {"type": "Point", "coordinates": [39.712731, 21.398338]}, "properties": {"layer": "bridges", "name": "جسر الزايدي", "color": "#c084fc", "طول الجسر (م.ط)": "100", "عرض الجسور (م.ط)": "28.66", "الركائز الطرفية  (عدد)": "2", "الركائز الوسطية (عدد)": "9", "البحور (عدد)": "8", "فواصل التمدد (عدد )": "2", "الدربزين (م.ط)": "200.1"}}, {"type": "Feature", "geometry": {"type": "Point", "coordinates": [39.751167, 21.412518]}, "properties": {"layer": "bridges", "name": "جسر تقاطع الدائري الرابع مع طريق جدة مكة رقم 1", "color": "#c084fc", "طول الجسر (م.ط)": "171.99", "عرض الجسور (م.ط)": "21.56", "الركائز الطرفية  (عدد)": "2", "الركائز الوسطية (عدد)": "12", "البحور (عدد)": "4", "فواصل التمدد (عدد )": "5", "الدربزين (م.ط)": "0"}}, {"type": "Feature", "geometry": {"type": "Point", "coordinates": [39.750269, 21.412756]}, "properties": {"layer": "bridges", "name": "جسر تقاطع الدائري الرابع مع طريق جدة مكة رقم 2", "color": "#c084fc", "طول الجسر (م.ط)": "137.2", "عرض الجسور (م.ط)": "24.8", "الركائز الطرفية  (عدد)": "2", "الركائز الوسطية (عدد)": "12", "البحور (عدد)": "4", "فواصل التمدد (عدد )": "5", "الدربزين (م.ط)": "0"}}, {"type": "Feature", "geometry": {"type": "Point", "coordinates": [39.751222, 21.413113]}, "properties": {"layer": "bridges", "name": "جسر تقاطع الدائري الرابع مع طريق جدة مكة رقم 3", "color": "#c084fc", "طول الجسر (م.ط)": "137.2", "عرض الجسور (م.ط)": "24.8", "الركائز الطرفية  (عدد)": "2", "الركائز الوسطية (عدد)": "9", "البحور (عدد)": "4", "فواصل التمدد (عدد )": "5", "الدربزين (م.ط)": "0"}}, {"type": "Feature", "geometry": {"type": "Point", "coordinates": [39.752571, 21.413197]}, "properties": {"layer": "bridges", "name": "جسر تقاطع الدائري الرابع مع طريق جدة مكة رقم 4", "color": "#c084fc", "طول الجسر (م.ط)": "143.89", "عرض الجسور (م.ط)": "10", "الركائز الطرفية  (عدد)": "2", "الركائز الوسطية (عدد)": "6", "البحور (عدد)": "4", "فواصل التمدد (عدد )": "5", "الدربزين (م.ط)": "0"}}, {"type": "Feature", "geometry": {"type": "Point", "coordinates": [39.748833, 21.414398]}, "properties": {"layer": "bridges", "name": "جسر تقاطع الدائري الرابع مع طريق جدة مكة رقم 5", "color": "#c084fc", "طول الجسر (م.ط)": "164", "عرض الجسور (م.ط)": "14.3", "الركائز الطرفية  (عدد)": "2", "الركائز الوسطية (عدد)": "6", "البحور (عدد)": "4", "فواصل التمدد (عدد )": "5", "الدربزين (م.ط)": "0"}}, {"type": "Feature", "geometry": {"type": "Point", "coordinates": [39.752571, 21.410984]}, "properties": {"layer": "bridges", "name": "جسر تقاطع الدائري الرابع مع طريق جدة مكة رقم 6", "color": "#c084fc", "طول الجسر (م.ط)": "139.47", "عرض الجسور (م.ط)": "15.6", "الركائز الطرفية  (عدد)": "2", "الركائز الوسطية (عدد)": "6", "البحور (عدد)": "4", "فواصل التمدد (عدد )": "5", "الدربزين (م.ط)": "0"}}, {"type": "Feature", "geometry": {"type": "Point", "coordinates": [39.779751, 21.420583]}, "properties": {"layer": "bridges", "name": "جسر تقاطع الدائري الثالث مع طريق جدة مكة رقم 1", "color": "#c084fc", "طول الجسر (م.ط)": "133", "عرض الجسور (م.ط)": "14.5", "الركائز الطرفية  (عدد)": "2", "الركائز الوسطية (عدد)": "12", "البحور (عدد)": "4", "فواصل التمدد (عدد )": "2", "الدربزين (م.ط)": "0"}}, {"type": "Feature", "geometry": {"type": "Point", "coordinates": [39.780022, 21.420834]}, "properties": {"layer": "bridges", "name": "جسر تقاطع الدائري الثالث مع طريق جدة مكة رقم 2", "color": "#c084fc", "طول الجسر (م.ط)": "133", "عرض الجسور (م.ط)": "14.5", "الركائز الطرفية  (عدد)": "2", "الركائز الوسطية (عدد)": "12", "البحور (عدد)": "4", "فواصل التمدد (عدد )": "2", "الدربزين (م.ط)": "0"}}, {"type": "Feature", "geometry": {"type": "Point", "coordinates": [39.781436, 21.42165]}, "properties": {"layer": "bridges", "name": "جسر تقاطع الدائري الثالث مع طريق جدة مكة رقم 3", "color": "#c084fc", "طول الجسر (م.ط)": "133", "عرض الجسور (م.ط)": "13.7", "الركائز الطرفية  (عدد)": "2", "الركائز الوسطية (عدد)": "0", "البحور (عدد)": "1", "فواصل التمدد (عدد )": "2", "الدربزين (م.ط)": "0"}}, {"type": "Feature", "geometry": {"type": "Point", "coordinates": [39.781769, 21.422021]}, "properties": {"layer": "bridges", "name": "جسر تقاطع الدائري الثالث مع طريق جدة مكة رقم 4", "color": "#c084fc", "طول الجسر (م.ط)": "600", "عرض الجسور (م.ط)": "19.5", "الركائز الطرفية  (عدد)": "2", "الركائز الوسطية (عدد)": "0", "البحور (عدد)": "1", "فواصل التمدد (عدد )": "10", "الدربزين (م.ط)": "0"}}, {"type": "Feature", "geometry": {"type": "Point", "coordinates": [39.779065, 21.423113]}, "properties": {"layer": "bridges", "name": "جسر تقاطع الدائري الثالث مع طريق جدة مكة رقم 5", "color": "#c084fc", "طول الجسر (م.ط)": "435", "عرض الجسور (م.ط)": "19.5", "الركائز الطرفية  (عدد)": "2", "الركائز الوسطية (عدد)": "4", "البحور (عدد)": "5", "فواصل التمدد (عدد )": "8", "الدربزين (م.ط)": "0"}}, {"type": "Feature", "geometry": {"type": "Point", "coordinates": [39.779785, 21.421136]}, "properties": {"layer": "bridges", "name": "جسر تقاطع الدائري الثالث مع طريق جدة مكة رقم 6", "color": "#c084fc", "طول الجسر (م.ط)": "30", "عرض الجسور (م.ط)": "14.5", "الركائز الطرفية  (عدد)": "2", "الركائز الوسطية (عدد)": "4", "البحور (عدد)": "5", "فواصل التمدد (عدد )": "2", "الدربزين (م.ط)": "0"}}, {"type": "Feature", "geometry": {"type": "Point", "coordinates": [39.780065, 21.419204]}, "properties": {"layer": "bridges", "name": "جسر تقاطع الدائري الثالث مع طريق جدة مكة رقم 7", "color": "#c084fc", "طول الجسر (م.ط)": "30", "عرض الجسور (م.ط)": "14.5", "الركائز الطرفية  (عدد)": "2", "الركائز الوسطية (عدد)": "0", "البحور (عدد)": "2", "فواصل التمدد (عدد )": "2", "الدربزين (م.ط)": "0"}}, {"type": "Feature", "geometry": {"type": "Point", "coordinates": [39.780469, 21.417707]}, "properties": {"layer": "bridges", "name": "جسر تقاطع الدائري الثالث مع طريق جدة مكة رقم 8", "color": "#c084fc", "طول الجسر (م.ط)": "30", "عرض الجسور (م.ط)": "13", "الركائز الطرفية  (عدد)": "2", "الركائز الوسطية (عدد)": "6", "البحور (عدد)": "7", "فواصل التمدد (عدد )": "2", "الدربزين (م.ط)": "0"}}, {"type": "Feature", "geometry": {"type": "Point", "coordinates": [39.78067, 21.417822]}, "properties": {"layer": "bridges", "name": "جسر تقاطع الدائري الثالث مع طريق جدة مكة رقم 9", "color": "#c084fc", "طول الجسر (م.ط)": "200", "عرض الجسور (م.ط)": "13.7", "الركائز الطرفية  (عدد)": "2", "الركائز الوسطية (عدد)": "6", "البحور (عدد)": "7", "فواصل التمدد (عدد )": "2", "الدربزين (م.ط)": "0"}}, {"type": "Feature", "geometry": {"type": "Point", "coordinates": [39.781329, 21.418148]}, "properties": {"layer": "bridges", "name": "جسر تقاطع الدائري الثالث مع طريق جدة مكة رقم 10", "color": "#c084fc", "طول الجسر (م.ط)": "200", "عرض الجسور (م.ط)": "13.7", "الركائز الطرفية  (عدد)": "2", "الركائز الوسطية (عدد)": "4", "البحور (عدد)": "5", "فواصل التمدد (عدد )": "2", "الدربزين (م.ط)": "0"}}, {"type": "Feature", "geometry": {"type": "Point", "coordinates": [39.806808, 21.423117]}, "properties": {"layer": "bridges", "name": "جسر المنصور", "color": "#c084fc", "طول الجسر (م.ط)": "197", "عرض الجسور (م.ط)": "16", "الركائز الطرفية  (عدد)": "2", "الركائز الوسطية (عدد)": "6", "البحور (عدد)": "7", "فواصل التمدد (عدد )": "10", "الدربزين (م.ط)": "394"}}, {"type": "Feature", "geometry": {"type": "Point", "coordinates": [39.810658, 21.423786]}, "properties": {"layer": "bridges", "name": "جسر التيسير 1", "color": "#c084fc", "طول الجسر (م.ط)": "50", "عرض الجسور (م.ط)": "20", "الركائز الطرفية  (عدد)": "2", "الركائز الوسطية (عدد)": "4", "البحور (عدد)": "1", "فواصل التمدد (عدد )": "2", "الدربزين (م.ط)": "0"}}, {"type": "Feature", "geometry": {"type": "Point", "coordinates": [39.810658, 21.423786]}, "properties": {"layer": "bridges", "name": "جسر التيسير 2", "color": "#c084fc", "طول الجسر (م.ط)": "50", "عرض الجسور (م.ط)": "20", "الركائز الطرفية  (عدد)": "2", "الركائز الوسطية (عدد)": "4", "البحور (عدد)": "1", "فواصل التمدد (عدد )": "2", "الدربزين (م.ط)": "0"}}, {"type": "Feature", "geometry": {"type": "Point", "coordinates": [39.810658, 21.423786]}, "properties": {"layer": "bridges", "name": "جسر التيسير 3", "color": "#c084fc", "طول الجسر (م.ط)": "50", "عرض الجسور (م.ط)": "20", "الركائز الطرفية  (عدد)": "2", "الركائز الوسطية (عدد)": "4", "البحور (عدد)": "1", "فواصل التمدد (عدد )": "2", "الدربزين (م.ط)": "0"}}, {"type": "Feature", "geometry": {"type": "Point", "coordinates": [39.810658, 21.423786]}, "properties": {"layer": "bridges", "name": "جسر التيسير 4", "color": "#c084fc", "طول الجسر (م.ط)": "50", "عرض الجسور (م.ط)": "20", "الركائز الطرفية  (عدد)": "2", "الركائز الوسطية (عدد)": "4", "البحور (عدد)": "1", "فواصل التمدد (عدد )": "2", "الدربزين (م.ط)": "0"}}, {"type": "Feature", "geometry": {"type": "Point", "coordinates": [39.810658, 21.423786]}, "properties": {"layer": "bridges", "name": "جسر التيسير 5", "color": "#c084fc", "طول الجسر (م.ط)": "50", "عرض الجسور (م.ط)": "10", "الركائز الطرفية  (عدد)": "2", "الركائز الوسطية (عدد)": "1", "البحور (عدد)": "1", "فواصل التمدد (عدد )": "2", "الدربزين (م.ط)": "0"}}, {"type": "Feature", "geometry": {"type": "Point", "coordinates": [39.8170707, 21.4238554]}, "properties": {"layer": "bridges", "name": "جسر جبل الكعبة القديم   (الدائري الأول )", "color": "#c084fc", "طول الجسر (م.ط)": "213", "عرض الجسور (م.ط)": "14.3", "الركائز الطرفية  (عدد)": "2", "الركائز الوسطية (عدد)": "6", "البحور (عدد)": "7", "فواصل التمدد (عدد )": "8", "الدربزين (م.ط)": "426"}}, {"type": "Feature", "geometry": {"type": "Point", "coordinates": [39.8170707, 21.4238554]}, "properties": {"layer": "bridges", "name": "جسر جبل الكعبة القديم   (الدائري الأول )", "color": "#c084fc", "طول الجسر (م.ط)": "213", "عرض الجسور (م.ط)": "14.3", "الركائز الطرفية  (عدد)": "2", "الركائز الوسطية (عدد)": "6", "البحور (عدد)": "7", "فواصل التمدد (عدد )": "8", "الدربزين (م.ط)": "426"}}, {"type": "Feature", "geometry": {"type": "Point", "coordinates": [39.8199502, 21.4237091]}, "properties": {"layer": "bridges", "name": "جسر جبل الكعبة الجديد", "color": "#c084fc", "طول الجسر (م.ط)": "139.7", "عرض الجسور (م.ط)": "8.5", "الركائز الطرفية  (عدد)": "2", "الركائز الوسطية (عدد)": "4", "البحور (عدد)": "4", "فواصل التمدد (عدد )": "4", "الدربزين (م.ط)": "279.4"}}]}